; Hershey Simplex Roman — generated by scara_text.py
; Text: ABCDEF / GHIJKLM / NOPQRS / TUVWXYZ
; Heights: 9mm  Rotation: -5.0°
G28
GOHOME
M5

; "ABCDEF" @ 9.0mm
G0 X-17.654 Y25.636
M3
G1 X-21.854 Y16.969
M5
G0 X-17.654 Y25.636
M3
G1 X-15.023 Y16.372
M5
G0 X-20.312 Y19.846
M3
G1 X-16.042 Y19.472
M5
G0 X-12.531 Y25.188
M3
G1 X-13.315 Y16.222
M5
G0 X-12.531 Y25.188
M3
G1 X-8.689 Y24.852
G1 X-7.445 Y24.313
G1 X-7.055 Y23.849
G1 X-6.703 Y22.957
G1 X-6.778 Y22.103
G1 X-7.28 Y21.287
G1 X-7.744 Y20.897
G1 X-9.062 Y20.582
M5
G0 X-12.905 Y20.919
M3
G1 X-9.062 Y20.582
G1 X-7.819 Y20.043
G1 X-7.429 Y19.579
G1 X-7.077 Y18.688
G1 X-7.189 Y17.407
G1 X-7.69 Y16.591
G1 X-8.155 Y16.201
G1 X-9.473 Y15.886
G1 X-13.315 Y16.222
M5
G0 X1.606 Y21.8
M3
G1 X1.254 Y22.691
G1 X0.475 Y23.62
G1 X-0.342 Y24.122
G1 X-2.05 Y24.271
G1 X-2.941 Y23.919
G1 X-3.869 Y23.14
G1 X-4.371 Y22.323
G1 X-4.91 Y21.08
G1 X-5.097 Y18.945
G1 X-4.782 Y17.627
G1 X-4.43 Y16.735
G1 X-3.651 Y15.807
G1 X-2.834 Y15.305
G1 X-1.126 Y15.156
G1 X-0.235 Y15.508
G1 X0.694 Y16.287
G1 X1.195 Y17.104
M5
G0 X4.162 Y23.728
M3
G1 X3.378 Y14.762
M5
G0 X4.162 Y23.728
M3
G1 X7.151 Y23.466
G1 X8.394 Y22.927
G1 X9.174 Y21.998
G1 X9.526 Y21.107
G1 X9.841 Y19.789
G1 X9.654 Y17.654
G1 X9.115 Y16.411
G1 X8.613 Y15.594
G1 X7.685 Y14.815
G1 X6.367 Y14.5
G1 X3.378 Y14.762
M5
G0 X12.509 Y22.997
M3
G1 X11.725 Y14.032
M5
G0 X12.509 Y22.997
M3
G1 X18.059 Y22.512
M5
G0 X12.136 Y18.728
M3
G1 X15.551 Y18.429
M5
G0 X11.725 Y14.032
M3
G1 X17.275 Y13.546
M5
G0 X20.13 Y22.331
M3
G1 X19.346 Y13.365
M5
G0 X20.13 Y22.331
M3
G1 X25.68 Y21.845
M5
G0 X19.756 Y18.061
M3
G1 X23.172 Y17.762
M5

; "GHIJKLM" @ 9.0mm
G0 X-17.49 Y10.421
M3
G1 X-17.843 Y11.312
G1 X-18.622 Y12.241
G1 X-19.438 Y12.743
G1 X-21.146 Y12.892
G1 X-22.037 Y12.54
G1 X-22.966 Y11.761
G1 X-23.468 Y10.944
G1 X-24.007 Y9.701
G1 X-24.193 Y7.566
G1 X-23.878 Y6.248
G1 X-23.526 Y5.357
G1 X-22.747 Y4.428
G1 X-21.931 Y3.926
G1 X-20.223 Y3.777
G1 X-19.332 Y4.129
G1 X-18.403 Y4.908
G1 X-17.901 Y5.725
G1 X-17.789 Y7.006
M5
G0 X-19.924 Y7.192
M3
G1 X-17.789 Y7.006
M5
G0 X-14.934 Y12.349
M3
G1 X-15.719 Y3.383
M5
G0 X-8.957 Y11.826
M3
G1 X-9.741 Y2.86
M5
G0 X-15.308 Y8.079
M3
G1 X-9.331 Y7.556
M5
G0 X-6.225 Y11.587
M3
G1 X-7.009 Y2.621
M5
G0 X0.82 Y10.97
M3
G1 X0.222 Y4.139
G1 X-0.317 Y2.896
G1 X-0.781 Y2.506
G1 X-1.672 Y2.154
G1 X-2.526 Y2.229
G1 X-3.343 Y2.73
G1 X-3.732 Y3.195
G1 X-3.657 Y4.048
M5
G0 X3.937 Y10.698
M3
G1 X3.152 Y1.732
M5
G0 X9.914 Y10.175
M3
G1 X3.414 Y4.72
M5
G0 X5.735 Y6.668
M3
G1 X9.129 Y1.209
M5
G0 X12.283 Y9.967
M3
G1 X11.499 Y1.002
M5
G0 X11.499 Y1.002
M3
G1 X16.622 Y0.553
M5
G0 X19.178 Y9.364
M3
G1 X18.394 Y0.398
M5
G0 X19.178 Y9.364
M3
G1 X21.81 Y0.1
M5
G0 X26.009 Y8.766
M3
G1 X21.81 Y0.1
M5
G0 X26.009 Y8.766
M3
G1 X25.225 Y-0.199
M5

; "NOPQRS" @ 9.0mm
G0 X-23.87 Y0.081
M3
G1 X-24.654 Y-8.885
M5
G0 X-23.87 Y0.081
M3
G1 X-18.677 Y-9.408
M5
G0 X-17.892 Y-0.442
M3
G1 X-18.677 Y-9.408
M5
G0 X-13.025 Y-0.868
M3
G1 X-13.916 Y-1.22
G1 X-14.845 Y-1.999
G1 X-15.347 Y-2.816
G1 X-15.886 Y-4.059
G1 X-16.072 Y-6.194
G1 X-15.758 Y-7.512
G1 X-15.405 Y-8.404
G1 X-14.626 Y-9.332
G1 X-13.81 Y-9.834
G1 X-12.102 Y-9.983
G1 X-11.211 Y-9.631
G1 X-10.282 Y-8.852
G1 X-9.78 Y-8.035
G1 X-9.241 Y-6.792
G1 X-9.055 Y-4.657
G1 X-9.37 Y-3.339
G1 X-9.722 Y-2.448
G1 X-10.501 Y-1.519
G1 X-11.317 Y-1.017
G1 X-13.025 Y-0.868
M5
G0 X-6.45 Y-1.443
M3
G1 X-7.235 Y-10.409
M5
G0 X-6.45 Y-1.443
M3
G1 X-2.608 Y-1.779
G1 X-1.364 Y-2.318
G1 X-0.975 Y-2.783
G1 X-0.623 Y-3.674
G1 X-0.735 Y-4.955
G1 X-1.236 Y-5.771
G1 X-1.701 Y-6.161
G1 X-3.019 Y-6.476
G1 X-6.861 Y-6.14
M5
G0 X4.031 Y-2.36
M3
G1 X3.14 Y-2.713
G1 X2.211 Y-3.492
G1 X1.71 Y-4.308
G1 X1.171 Y-5.552
G1 X0.984 Y-7.686
G1 X1.299 Y-9.005
G1 X1.651 Y-9.896
G1 X2.43 Y-10.824
G1 X3.247 Y-11.326
G1 X4.954 Y-11.475
G1 X5.846 Y-11.123
G1 X6.774 Y-10.344
G1 X7.276 Y-9.528
G1 X7.815 Y-8.284
G1 X8.002 Y-6.149
G1 X7.687 Y-4.831
G1 X7.335 Y-3.94
G1 X6.555 Y-3.011
G1 X5.739 Y-2.51
G1 X4.031 Y-2.36
M5
G0 X4.677 Y-9.73
M3
G1 X7.014 Y-12.516
M5
G0 X10.606 Y-2.936
M3
G1 X9.822 Y-11.901
M5
G0 X10.606 Y-2.936
M3
G1 X14.448 Y-3.272
G1 X15.692 Y-3.811
G1 X16.081 Y-4.275
G1 X16.434 Y-5.166
G1 X16.359 Y-6.02
G1 X15.857 Y-6.837
G1 X15.393 Y-7.226
G1 X14.075 Y-7.541
G1 X10.232 Y-7.205
M5
G0 X13.221 Y-7.466
M3
G1 X15.799 Y-12.424
M5
G0 X24.391 Y-5.432
M3
G1 X23.612 Y-4.504
G1 X22.368 Y-3.965
G1 X20.66 Y-3.815
G1 X19.342 Y-4.13
G1 X18.414 Y-4.909
G1 X18.339 Y-5.763
G1 X18.691 Y-6.654
G1 X19.081 Y-7.119
G1 X19.897 Y-7.62
G1 X22.384 Y-8.698
G1 X23.201 Y-9.2
G1 X23.59 Y-9.664
G1 X23.943 Y-10.555
G1 X23.831 Y-11.836
G1 X22.902 Y-12.615
G1 X21.584 Y-12.93
G1 X19.876 Y-12.781
G1 X18.633 Y-12.242
G1 X17.853 Y-11.313
M5

; "TUVWXYZ" @ 9.0mm
G0 X-25.472 Y-12.829
M3
G1 X-26.257 Y-21.795
M5
G0 X-28.461 Y-12.567
M3
G1 X-22.484 Y-13.09
M5
G0 X-20.648 Y-13.251
M3
G1 X-21.208 Y-19.655
G1 X-20.893 Y-20.973
G1 X-20.114 Y-21.902
G1 X-18.871 Y-22.441
G1 X-18.017 Y-22.515
G1 X-16.698 Y-22.201
G1 X-15.77 Y-21.421
G1 X-15.231 Y-20.178
G1 X-14.671 Y-13.774
M5
G0 X-13.219 Y-13.901
M3
G1 X-10.588 Y-23.165
M5
G0 X-6.388 Y-14.498
M3
G1 X-10.588 Y-23.165
M5
G0 X-5.534 Y-14.573
M3
G1 X-4.184 Y-23.726
M5
G0 X-1.265 Y-14.947
M3
G1 X-4.184 Y-23.726
M5
G0 X-1.265 Y-14.947
M3
G1 X0.086 Y-24.099
M5
G0 X3.005 Y-15.32
M3
G1 X0.086 Y-24.099
M5
G0 X4.328 Y-15.436
M3
G1 X9.521 Y-24.925
M5
G0 X10.305 Y-15.959
M3
G1 X3.544 Y-24.402
M5
G0 X11.458 Y-16.06
M3
G1 X14.5 Y-20.628
G1 X14.089 Y-25.324
M5
G0 X18.289 Y-16.657
M3
G1 X14.5 Y-20.628
M5
G0 X25.547 Y-17.292
M3
G1 X18.786 Y-25.735
M5
G0 X19.57 Y-16.769
M3
G1 X25.547 Y-17.292
M5
G0 X18.786 Y-25.735
M3
G1 X24.763 Y-26.258
M5

M5
G0 X0 Y0
