; Hershey Simplex Roman — generated by scara_text.py
; Text: abcdefg / hijklmn / opqrstu / vwxyz
; Heights: 9mm  Rotation: -5.0°
G28
GOHOME
M5

; "abcdefg" @ 9.0mm
G0 X-16.806 Y22.551
M3
G1 X-17.329 Y16.573
M5
G0 X-16.918 Y21.27
M3
G1 X-17.697 Y22.198
G1 X-18.513 Y22.7
G1 X-19.794 Y22.812
G1 X-20.686 Y22.46
G1 X-21.614 Y21.681
G1 X-22.153 Y20.437
G1 X-22.228 Y19.583
G1 X-21.913 Y18.265
G1 X-21.134 Y17.336
G1 X-20.317 Y16.835
G1 X-19.036 Y16.723
G1 X-18.145 Y17.075
G1 X-17.217 Y17.854
M5
G0 X-13.62 Y25.283
M3
G1 X-14.404 Y16.317
M5
G0 X-13.993 Y21.014
M3
G1 X-13.065 Y21.793
G1 X-12.173 Y22.145
G1 X-10.893 Y22.033
G1 X-10.076 Y21.532
G1 X-9.297 Y20.603
G1 X-8.982 Y19.285
G1 X-9.057 Y18.431
G1 X-9.596 Y17.187
G1 X-10.524 Y16.408
G1 X-11.415 Y16.056
G1 X-12.696 Y16.168
G1 X-13.513 Y16.67
G1 X-14.292 Y17.598
M5
G0 X-1.676 Y19.936
M3
G1 X-2.455 Y20.865
G1 X-3.272 Y21.366
G1 X-4.552 Y21.479
G1 X-5.444 Y21.126
G1 X-6.372 Y20.347
G1 X-6.911 Y19.104
G1 X-6.986 Y18.25
G1 X-6.671 Y16.932
G1 X-5.892 Y16.003
G1 X-5.075 Y15.501
G1 X-3.795 Y15.389
G1 X-2.903 Y15.742
G1 X-1.975 Y16.521
M5
G0 X5.956 Y23.571
M3
G1 X5.171 Y14.605
M5
G0 X5.582 Y19.301
M3
G1 X4.803 Y20.23
G1 X3.986 Y20.731
G1 X2.705 Y20.844
G1 X1.814 Y20.491
G1 X0.886 Y19.712
G1 X0.347 Y18.469
G1 X0.272 Y17.615
G1 X0.587 Y16.297
G1 X1.366 Y15.368
G1 X2.183 Y14.866
G1 X3.463 Y14.754
G1 X4.355 Y15.107
G1 X5.283 Y15.886
M5
G0 X7.968 Y17.802
M3
G1 X13.091 Y17.354
G1 X13.166 Y18.208
G1 X12.813 Y19.099
G1 X12.424 Y19.563
G1 X11.607 Y20.065
G1 X10.326 Y20.177
G1 X9.435 Y19.825
G1 X8.507 Y19.045
G1 X7.968 Y17.802
G1 X7.893 Y16.948
G1 X8.208 Y15.63
G1 X8.987 Y14.701
G1 X9.803 Y14.2
G1 X11.084 Y14.088
G1 X11.976 Y14.44
G1 X12.904 Y15.219
M5
G0 X18.7 Y22.456
M3
G1 X17.846 Y22.53
G1 X16.955 Y22.178
G1 X16.416 Y20.935
G1 X15.781 Y13.677
M5
G0 X15.023 Y19.766
M3
G1 X18.011 Y19.504
M5
G0 X25.654 Y18.836
M3
G1 X25.056 Y12.005
G1 X24.517 Y10.761
G1 X24.053 Y10.372
G1 X23.161 Y10.019
G1 X21.881 Y10.132
G1 X21.064 Y10.633
M5
G0 X25.541 Y17.555
M3
G1 X24.762 Y18.484
G1 X23.946 Y18.985
G1 X22.665 Y19.097
G1 X21.774 Y18.745
G1 X20.845 Y17.966
G1 X20.306 Y16.722
G1 X20.231 Y15.869
G1 X20.546 Y14.55
G1 X21.326 Y13.622
G1 X22.142 Y13.12
G1 X23.423 Y13.008
G1 X24.314 Y13.36
G1 X25.243 Y14.139
M5

; "hijklmn" @ 9.0mm
G0 X-20.015 Y12.793
M3
G1 X-20.799 Y3.827
M5
G0 X-20.426 Y8.097
M3
G1 X-19.033 Y9.265
G1 X-18.142 Y9.618
G1 X-16.861 Y9.506
G1 X-16.044 Y9.004
G1 X-15.729 Y7.686
G1 X-16.103 Y3.416
M5
G0 X-12.821 Y12.164
M3
G1 X-12.431 Y11.699
G1 X-11.967 Y12.089
G1 X-12.357 Y12.553
G1 X-12.821 Y12.164
M5
G0 X-12.655 Y9.138
M3
G1 X-13.178 Y3.161
M5
G0 X-8.338 Y11.771
M3
G1 X-7.948 Y11.307
G1 X-7.484 Y11.697
G1 X-7.874 Y12.161
G1 X-8.338 Y11.771
M5
G0 X-8.172 Y8.746
M3
G1 X-8.807 Y1.488
G1 X-9.346 Y0.244
G1 X-10.238 Y-0.108
G1 X-11.092 Y-0.033
M5
G0 X-4.41 Y11.428
M3
G1 X-5.194 Y2.462
M5
G0 X-0.402 Y8.066
M3
G1 X-5.045 Y4.17
M5
G0 X-3.188 Y5.728
M3
G1 X-0.498 Y2.051
M5
G0 X2.485 Y10.825
M3
G1 X1.701 Y1.859
M5
G0 X5.853 Y7.519
M3
G1 X5.33 Y1.541
M5
G0 X5.703 Y5.811
M3
G1 X7.096 Y6.98
G1 X7.987 Y7.332
G1 X9.268 Y7.22
G1 X10.085 Y6.718
G1 X10.399 Y5.4
G1 X10.026 Y1.13
M5
G0 X10.399 Y5.4
M3
G1 X11.792 Y6.569
G1 X12.684 Y6.921
G1 X13.964 Y6.809
G1 X14.781 Y6.307
G1 X15.096 Y4.989
G1 X14.722 Y0.72
M5
G0 X17.465 Y6.503
M3
G1 X16.942 Y0.525
M5
G0 X17.316 Y4.795
M3
G1 X18.709 Y5.964
G1 X19.6 Y6.316
G1 X20.881 Y6.204
G1 X21.697 Y5.702
G1 X22.012 Y4.384
G1 X21.639 Y0.114
M5

; "opqrstu" @ 9.0mm
G0 X-20.972 Y-3.184
M3
G1 X-21.863 Y-3.537
G1 X-22.791 Y-4.316
G1 X-23.33 Y-5.559
G1 X-23.405 Y-6.413
G1 X-23.09 Y-7.731
G1 X-22.311 Y-8.66
G1 X-21.495 Y-9.161
G1 X-20.214 Y-9.274
G1 X-19.322 Y-8.921
G1 X-18.394 Y-8.142
G1 X-17.855 Y-6.899
G1 X-17.78 Y-6.045
G1 X-18.095 Y-4.727
G1 X-18.874 Y-3.798
G1 X-19.691 Y-3.296
G1 X-20.972 Y-3.184
M5
G0 X-15.058 Y-3.702
M3
G1 X-15.843 Y-12.667
M5
G0 X-15.171 Y-4.982
M3
G1 X-14.242 Y-4.203
G1 X-13.351 Y-3.851
G1 X-12.07 Y-3.963
G1 X-11.253 Y-4.465
G1 X-10.474 Y-5.393
G1 X-10.159 Y-6.712
G1 X-10.234 Y-7.565
G1 X-10.773 Y-8.809
G1 X-11.702 Y-9.588
G1 X-12.593 Y-9.94
G1 X-13.874 Y-9.828
G1 X-14.69 Y-9.327
G1 X-15.469 Y-8.398
M5
G0 X-2.741 Y-4.779
M3
G1 X-3.526 Y-13.745
M5
G0 X-2.853 Y-6.06
M3
G1 X-3.632 Y-5.132
G1 X-4.449 Y-4.63
G1 X-5.73 Y-4.518
G1 X-6.621 Y-4.87
G1 X-7.55 Y-5.649
G1 X-8.089 Y-6.893
G1 X-8.163 Y-7.747
G1 X-7.848 Y-9.065
G1 X-7.069 Y-9.993
G1 X-6.253 Y-10.495
G1 X-4.972 Y-10.607
G1 X-4.081 Y-10.255
G1 X-3.152 Y-9.476
M5
G0 X0.183 Y-5.035
M3
G1 X-0.34 Y-11.012
M5
G0 X-0.041 Y-7.597
M3
G1 X0.498 Y-6.353
G1 X1.427 Y-5.574
G1 X2.318 Y-5.222
G1 X3.599 Y-5.334
M5
G0 X9.784 Y-7.166
M3
G1 X9.432 Y-6.274
G1 X8.188 Y-5.735
G1 X6.908 Y-5.623
G1 X5.589 Y-5.938
G1 X5.088 Y-6.755
G1 X5.44 Y-7.646
G1 X6.257 Y-8.148
G1 X8.354 Y-8.761
G1 X9.17 Y-9.263
G1 X9.523 Y-10.154
G1 X9.485 Y-10.581
G1 X8.984 Y-11.398
G1 X7.665 Y-11.713
G1 X6.385 Y-11.601
G1 X5.141 Y-11.062
G1 X4.789 Y-10.17
M5
G0 X13.21 Y-3.163
M3
G1 X12.575 Y-10.421
G1 X12.89 Y-11.74
G1 X13.707 Y-12.241
G1 X14.561 Y-12.316
M5
G0 X11.668 Y-6.04
M3
G1 X14.657 Y-6.301
M5
G0 X17.602 Y-6.559
M3
G1 X17.229 Y-10.829
G1 X17.544 Y-12.147
G1 X18.36 Y-12.648
G1 X19.641 Y-12.76
G1 X20.532 Y-12.408
G1 X21.925 Y-11.239
M5
G0 X22.299 Y-6.97
M3
G1 X21.776 Y-12.947
M5

; "vwxyz" @ 9.0mm
G0 X-18.497 Y-16.45
M3
G1 X-16.458 Y-22.652
M5
G0 X-13.374 Y-16.899
M3
G1 X-16.458 Y-22.652
M5
G0 X-11.538 Y-17.059
M3
G1 X-10.353 Y-23.186
M5
G0 X-8.122 Y-17.358
M3
G1 X-10.353 Y-23.186
M5
G0 X-8.122 Y-17.358
M3
G1 X-6.938 Y-23.485
M5
G0 X-4.707 Y-17.657
M3
G1 X-6.938 Y-23.485
M5
G0 X-2.828 Y-17.821
M3
G1 X1.345 Y-24.209
M5
G0 X1.868 Y-18.232
M3
G1 X-3.351 Y-23.798
M5
G0 X3.64 Y-18.387
M3
G1 X5.679 Y-24.588
M5
G0 X8.763 Y-18.835
M3
G1 X5.679 Y-24.588
G1 X4.675 Y-26.222
G1 X3.747 Y-27.001
G1 X2.855 Y-27.353
G1 X2.429 Y-27.316
M5
G0 X15.295 Y-19.407
M3
G1 X10.076 Y-24.973
M5
G0 X10.599 Y-18.996
M3
G1 X15.295 Y-19.407
M5
G0 X10.076 Y-24.973
M3
G1 X14.772 Y-25.384
M5

M5
G0 X0 Y0
