; Hershey Simplex Roman — generated by scara_text.py
; Text: 0123456789 / !?.,:-+=
; Heights: 9mm  Rotation: -5.0°
G28
GOHOME
M5

; "0123456789" @ 9.0mm
G0 X-35.118 Y14.114
M3
G1 X-36.436 Y13.8
G1 X-37.402 Y12.593
G1 X-38.016 Y10.496
G1 X-38.128 Y9.215
G1 X-37.887 Y7.043
G1 X-37.146 Y5.688
G1 X-35.902 Y5.149
G1 X-35.048 Y5.074
G1 X-33.73 Y5.389
G1 X-32.764 Y6.595
G1 X-32.15 Y8.692
G1 X-32.038 Y9.973
G1 X-32.279 Y12.145
G1 X-33.02 Y13.501
G1 X-34.264 Y14.04
G1 X-35.118 Y14.114
M5
G0 X-28.564 Y11.82
M3
G1 X-27.673 Y12.172
G1 X-26.28 Y13.341
G1 X-27.064 Y4.375
M5
G0 X-21.472 Y10.77
M3
G1 X-21.434 Y11.196
G1 X-20.933 Y12.013
G1 X-20.468 Y12.403
G1 X-19.577 Y12.755
G1 X-17.869 Y12.605
G1 X-17.053 Y12.104
G1 X-16.663 Y11.639
G1 X-16.311 Y10.748
G1 X-16.386 Y9.894
G1 X-16.887 Y9.078
G1 X-17.853 Y7.872
G1 X-22.496 Y3.976
G1 X-16.519 Y3.453
M5
G0 X-12.874 Y12.168
M3
G1 X-8.178 Y11.757
G1 X-11.038 Y8.566
G1 X-9.757 Y8.454
G1 X-8.941 Y7.952
G1 X-8.551 Y7.488
G1 X-8.236 Y6.17
G1 X-8.311 Y5.316
G1 X-8.85 Y4.073
G1 X-9.779 Y3.293
G1 X-11.097 Y2.978
G1 X-12.378 Y3.091
G1 X-13.621 Y3.63
G1 X-14.011 Y4.094
G1 X-14.363 Y4.985
M5
G0 X-1.475 Y11.171
M3
G1 X-6.267 Y5.567
G1 X0.137 Y5.007
M5
G0 X-1.475 Y11.171
M3
G1 X-2.259 Y2.205
M5
G0 X7.363 Y10.398
M3
G1 X3.093 Y10.771
G1 X2.33 Y6.966
G1 X2.795 Y7.356
G1 X4.113 Y7.671
G1 X5.394 Y7.559
G1 X6.637 Y7.02
G1 X7.416 Y6.091
G1 X7.731 Y4.773
G1 X7.656 Y3.919
G1 X7.117 Y2.676
G1 X6.189 Y1.896
G1 X4.871 Y1.582
G1 X3.59 Y1.694
G1 X2.346 Y2.233
G1 X1.957 Y2.697
G1 X1.605 Y3.588
M5
G0 X15.661 Y8.381
M3
G1 X15.309 Y9.272
G1 X14.066 Y9.811
G1 X13.212 Y9.886
G1 X11.894 Y9.571
G1 X10.928 Y8.365
G1 X10.314 Y6.268
G1 X10.127 Y4.133
G1 X10.405 Y2.388
G1 X11.184 Y1.459
G1 X12.428 Y0.92
G1 X12.854 Y0.883
G1 X14.173 Y1.198
G1 X15.101 Y1.977
G1 X15.64 Y3.221
G1 X15.678 Y3.647
G1 X15.363 Y4.966
G1 X14.583 Y5.894
G1 X13.34 Y6.433
G1 X12.913 Y6.471
G1 X11.595 Y6.156
G1 X10.666 Y5.377
G1 X10.127 Y4.133
M5
G0 X24.184 Y8.926
M3
G1 X19.13 Y0.334
M5
G0 X18.207 Y9.449
M3
G1 X24.184 Y8.926
M5
G0 X28.326 Y8.564
M3
G1 X27.007 Y8.249
G1 X26.506 Y7.432
G1 X26.431 Y6.579
G1 X26.783 Y5.687
G1 X27.6 Y5.186
G1 X29.27 Y4.609
G1 X30.514 Y4.07
G1 X31.293 Y3.142
G1 X31.645 Y2.251
G1 X31.533 Y0.97
G1 X31.031 Y0.153
G1 X30.567 Y-0.236
G1 X29.249 Y-0.551
G1 X27.541 Y-0.402
G1 X26.298 Y0.137
G1 X25.908 Y0.601
G1 X25.556 Y1.493
G1 X25.668 Y2.773
G1 X26.17 Y3.59
G1 X27.098 Y4.369
G1 X28.416 Y4.684
G1 X30.161 Y4.962
G1 X31.053 Y5.314
G1 X31.554 Y6.13
G1 X31.629 Y6.984
G1 X31.277 Y7.875
G1 X30.033 Y8.414
G1 X28.326 Y8.564
M5
G0 X39.463 Y4.578
M3
G1 X38.924 Y3.334
G1 X37.996 Y2.555
G1 X36.678 Y2.24
G1 X36.251 Y2.278
G1 X35.007 Y2.817
G1 X34.228 Y3.745
G1 X33.913 Y5.064
G1 X33.951 Y5.49
G1 X34.49 Y6.734
G1 X35.418 Y7.513
G1 X36.736 Y7.828
G1 X37.163 Y7.791
G1 X38.407 Y7.252
G1 X39.186 Y6.323
G1 X39.463 Y4.578
G1 X39.277 Y2.443
G1 X38.663 Y0.346
G1 X37.697 Y-0.86
G1 X36.379 Y-1.175
G1 X35.525 Y-1.1
G1 X34.282 Y-0.561
G1 X33.892 Y-0.097
M5

; "!?.,:-+=" @ 9.0mm
G0 X-25.62 Y0.234
M3
G1 X-26.143 Y-5.743
M5
G0 X-26.33 Y-7.878
M3
G1 X-26.794 Y-8.268
G1 X-26.404 Y-8.732
G1 X-25.94 Y-8.342
G1 X-26.33 Y-7.878
M5
G0 X-22.306 Y-2.207
M3
G1 X-22.268 Y-1.78
G1 X-21.767 Y-0.964
G1 X-21.303 Y-0.574
G1 X-20.411 Y-0.222
G1 X-18.704 Y-0.371
G1 X-17.887 Y-0.873
G1 X-17.497 Y-1.337
G1 X-17.145 Y-2.228
G1 X-17.22 Y-3.082
G1 X-17.722 Y-3.899
G1 X-18.186 Y-4.288
G1 X-19.968 Y-4.993
G1 X-20.08 Y-6.274
M5
G0 X-20.267 Y-8.408
M3
G1 X-20.731 Y-8.798
G1 X-20.342 Y-9.262
G1 X-19.878 Y-8.873
G1 X-20.267 Y-8.408
M5
G0 X-14.717 Y-8.894
M3
G1 X-15.181 Y-9.284
G1 X-14.792 Y-9.748
G1 X-14.327 Y-9.358
G1 X-14.717 Y-8.894
M5
G0 X-9.973 Y-9.739
M3
G1 X-10.437 Y-10.129
G1 X-10.826 Y-9.665
G1 X-10.362 Y-9.275
G1 X-9.973 Y-9.739
G1 X-10.047 Y-10.593
G1 X-10.549 Y-11.41
G1 X-11.013 Y-11.799
M5
G0 X-5.559 Y-4.533
M3
G1 X-6.023 Y-4.922
G1 X-5.634 Y-5.387
G1 X-5.169 Y-4.997
G1 X-5.559 Y-4.533
M5
G0 X-6.007 Y-9.656
M3
G1 X-6.472 Y-10.046
G1 X-6.082 Y-10.51
G1 X-5.618 Y-10.12
G1 X-6.007 Y-9.656
M5
G0 X-1.818 Y-7.011
M3
G1 X5.867 Y-7.683
M5
G0 X12.522 Y-4.394
M3
G1 X11.85 Y-12.079
M5
G0 X8.343 Y-7.9
M3
G1 X16.028 Y-8.572
M5
G0 X18.616 Y-7.508
M3
G1 X26.301 Y-8.181
M5
G0 X18.392 Y-10.07
M3
G1 X26.077 Y-10.742
M5

M5
G0 X0 Y0
