; HELLO — skew corrected, 1:1 scale
G28
GOHOME
M5

; H
G0 X-36.71 Y-9.0
M3
G1 X-38.29 Y9.0
M5
G0 X-26.71 Y-9.0
M3
G1 X-28.29 Y9.0
M5
G0 X-37.5 Y0.0
M3
G1 X-27.5 Y0.0
M5

; E
G0 X-11.71 Y-9.0
M3
G1 X-21.71 Y-9.0
G1 X-23.29 Y9.0
G1 X-13.29 Y9.0
M5
G0 X-22.5 Y0.0
M3
G1 X-14.5 Y0.0
M5

; L
G0 X-8.29 Y9.0
M3
G1 X-6.71 Y-9.0
G1 X3.29 Y-9.0
M5

; L
G0 X6.71 Y9.0
M3
G1 X8.29 Y-9.0
G1 X18.29 Y-9.0
M5

; O
G0 X26.29 Y-9.0
M3
G1 X30.29 Y-9.0
G1 X32.97 Y-5.4
G1 X32.03 Y5.4
G1 X28.71 Y9.0
G1 X24.71 Y9.0
G1 X22.03 Y5.4
G1 X22.97 Y-5.4
G1 X26.29 Y-9.0
M5

M5
G0 X0 Y0
