; The quick brown fox jumps over the lazy dog
; Line 1-2: 8mm  Line 3: 12mm  Line 4-5: 14mm
G28
GOHOME
M5

; 'The quick brown' @ 8mm
G0 X-41.96 Y41.82
M3
G1 X-37.97 Y41.47
M5
G0 X-39.96 Y41.64
M3
G1 X-40.66 Y33.67
M5
G0 X-36.28 Y33.29
M3
G1 X-35.58 Y41.26
M5
G0 X-32.29 Y32.94
M3
G1 X-31.59 Y40.91
M5
G0 X-35.93 Y37.27
M3
G1 X-31.94 Y36.92
M5
G0 X-25.92 Y32.38
M3
G1 X-29.9 Y32.73
G1 X-29.2 Y40.7
G1 X-25.22 Y40.35
M5
G0 X-29.55 Y36.72
M3
G1 X-26.36 Y36.44
M5
G0 X-18.9 Y31.77
M3
G1 X-16.51 Y31.56
G1 X-15.58 Y33.08
G1 X-15.16 Y37.87
G1 X-15.82 Y39.53
G1 X-18.21 Y39.74
G1 X-19.14 Y38.21
G1 X-19.56 Y33.43
G1 X-18.9 Y31.77
M5
G0 X-17.1 Y34.02
M3
G1 X-15.72 Y31.49
M5
G0 X-12.63 Y39.25
M3
G1 X-13.18 Y32.87
G1 X-12.53 Y31.21
G1 X-10.14 Y31.0
G1 X-9.2 Y32.53
G1 X-8.64 Y38.9
M5
G0 X-6.15 Y30.65
M3
G1 X-3.76 Y30.44
M5
G0 X-4.96 Y30.55
M3
G1 X-4.26 Y38.52
M5
G0 X-5.45 Y38.62
M3
G1 X-3.06 Y38.41
M5
G0 X3.97 Y36.19
M3
G1 X2.51 Y37.93
G1 X0.92 Y38.06
G1 X-0.02 Y36.54
G1 X-0.43 Y31.76
G1 X0.22 Y30.1
G1 X1.82 Y29.96
G1 X3.55 Y31.41
M5
G0 X5.8 Y29.61
M3
G1 X6.5 Y37.58
M5
G0 X10.48 Y37.23
M3
G1 X6.15 Y33.59
G1 X9.79 Y29.26
M5
G0 X16.0 Y28.71
M3
G1 X16.7 Y36.68
G1 X19.89 Y36.41
G1 X20.58 Y35.14
G1 X20.44 Y33.55
G1 X19.54 Y32.42
G1 X16.35 Y32.7
M5
G0 X19.54 Y32.42
M3
G1 X20.23 Y31.16
G1 X20.09 Y29.56
G1 X19.19 Y28.44
G1 X16.0 Y28.71
M5
G0 X22.38 Y28.16
M3
G1 X23.08 Y36.13
G1 X26.26 Y35.85
G1 X26.96 Y34.58
G1 X26.82 Y32.99
G1 X25.92 Y31.86
G1 X22.73 Y32.14
M5
G0 X25.12 Y31.93
M3
G1 X26.36 Y27.81
M5
G0 X29.55 Y27.53
M3
G1 X31.94 Y27.32
G1 X32.88 Y28.84
G1 X33.3 Y33.63
G1 X32.64 Y35.29
G1 X30.25 Y35.5
G1 X29.31 Y33.97
G1 X28.89 Y29.19
G1 X29.55 Y27.53
M5
G0 X35.83 Y35.01
M3
G1 X36.33 Y26.94
G1 X37.94 Y31.61
G1 X38.72 Y26.73
G1 X40.61 Y34.59
M5
G0 X41.51 Y26.48
M3
G1 X42.2 Y34.45
G1 X45.49 Y26.13
G1 X46.19 Y34.1
M5

; 'fox' @ 8mm
G0 X-8.08 Y17.77
M3
G1 X-7.38 Y25.74
G1 X-3.4 Y25.39
M5
G0 X-7.73 Y21.76
M3
G1 X-4.55 Y21.48
M5
G0 X-0.91 Y17.14
M3
G1 X1.48 Y16.94
G1 X2.42 Y18.46
G1 X2.84 Y23.24
G1 X2.18 Y24.9
G1 X-0.21 Y25.11
G1 X-1.15 Y23.59
G1 X-1.57 Y18.81
G1 X-0.91 Y17.14
M5
G0 X5.37 Y24.63
M3
G1 X8.65 Y16.31
M5
G0 X4.67 Y16.66
M3
G1 X9.35 Y24.28
M5

; 'jumps over' @ 12mm
G0 X-45.7 Y6.41
M3
G1 X-44.71 Y3.91
G1 X-42.32 Y3.7
G1 X-40.91 Y5.99
G1 X-40.08 Y15.55
M5
G0 X-35.3 Y15.13
M3
G1 X-36.13 Y5.57
G1 X-35.15 Y3.07
G1 X-31.56 Y2.76
G1 X-30.15 Y5.05
G1 X-29.32 Y14.61
M5
G0 X-26.78 Y2.34
M3
G1 X-25.73 Y14.3
G1 X-22.77 Y6.81
G1 X-18.56 Y13.67
G1 X-19.61 Y1.72
M5
G0 X-17.21 Y1.51
M3
G1 X-16.17 Y13.46
G1 X-11.39 Y13.04
G1 X-10.35 Y11.14
G1 X-10.56 Y8.75
G1 X-11.91 Y7.06
G1 X-16.69 Y7.48
M5
G0 X-0.84 Y9.71
M3
G1 X-3.02 Y12.31
G1 X-5.41 Y12.52
G1 X-6.81 Y10.23
G1 X-7.02 Y7.84
G1 X-1.26 Y4.93
G1 X-1.46 Y2.54
G1 X-2.87 Y0.25
G1 X-6.46 Y0.56
G1 X-7.44 Y3.06
M5
G0 X8.85 Y-0.77
M3
G1 X12.43 Y-1.09
G1 X13.84 Y1.2
G1 X14.46 Y8.37
G1 X13.48 Y10.87
G1 X9.89 Y11.18
G1 X8.49 Y8.89
G1 X7.86 Y1.72
G1 X8.85 Y-0.77
M5
G0 X18.26 Y10.45
M3
G1 X20.2 Y-1.77
G1 X24.24 Y9.93
M5
G0 X32.75 Y-2.87
M3
G1 X26.78 Y-2.34
G1 X27.82 Y9.61
G1 X33.8 Y9.09
M5
G0 X27.3 Y3.63
M3
G1 X32.08 Y3.22
M5
G0 X36.34 Y-3.18
M3
G1 X37.39 Y8.77
G1 X42.17 Y8.36
G1 X43.21 Y6.46
G1 X43.0 Y4.07
G1 X41.65 Y2.38
G1 X36.86 Y2.8
M5
G0 X40.45 Y2.48
M3
G1 X42.32 Y-3.7
M5

; 'the lazy' @ 14mm
G0 X-42.83 Y-1.27
M3
G1 X-35.86 Y-1.88
M5
G0 X-39.35 Y-1.58
M3
G1 X-40.57 Y-15.52
M5
G0 X-32.9 Y-16.19
M3
G1 X-31.68 Y-2.25
M5
G0 X-25.92 Y-16.8
M3
G1 X-24.7 Y-2.86
M5
G0 X-32.29 Y-9.22
M3
G1 X-25.31 Y-9.83
M5
G0 X-14.77 Y-17.78
M3
G1 X-21.74 Y-17.17
G1 X-20.52 Y-3.22
G1 X-13.55 Y-3.83
M5
G0 X-21.13 Y-10.2
M3
G1 X-15.55 Y-10.69
M5
G0 X-2.67 Y-4.79
M3
G1 X-3.89 Y-18.73
G1 X3.09 Y-19.34
M5
G0 X7.27 Y-19.71
M3
G1 X12.67 Y-6.13
G1 X15.64 Y-20.44
M5
G0 X9.43 Y-14.28
M3
G1 X14.45 Y-14.72
M5
G0 X19.65 Y-6.74
M3
G1 X26.62 Y-7.35
G1 X18.43 Y-20.68
G1 X25.4 Y-21.29
M5
G0 X30.8 Y-7.71
M3
G1 X33.68 Y-14.99
G1 X37.78 Y-8.32
M5
G0 X33.68 Y-14.99
M3
G1 X33.07 Y-21.97
M5

; 'dog' @ 14mm
G0 X-20.05 Y-36.39
M3
G1 X-18.83 Y-22.44
G1 X-14.64 Y-22.81
G1 X-12.1 Y-25.84
G1 X-12.83 Y-34.21
G1 X-15.86 Y-36.76
G1 X-20.05 Y-36.39
M5
G0 X-7.5 Y-37.49
M3
G1 X-3.31 Y-37.86
G1 X-1.67 Y-35.19
G1 X-0.94 Y-26.82
G1 X-2.09 Y-23.91
G1 X-6.28 Y-23.54
G1 X-7.91 Y-26.21
G1 X-8.65 Y-34.58
G1 X-7.5 Y-37.49
M5
G0 X10.22 Y-27.8
M3
G1 X7.67 Y-24.76
G1 X4.88 Y-24.52
G1 X3.24 Y-27.19
G1 X2.51 Y-35.55
G1 X3.66 Y-38.47
G1 X6.45 Y-38.71
G1 X9.48 Y-36.16
G1 X9.85 Y-31.98
G1 X7.06 Y-31.74
M5

M5
G0 X0 Y0
