G28
GOHOME
M5

; 'THE QUICK BROWN' @ 8mm
G0 X-39.37 Y41.59
M3
G1 X-34.58 Y41.17
M5
G0 X-36.97 Y41.38
M3
G1 X-37.67 Y33.41
M5
G0 X-34.09 Y33.1
M3
G1 X-33.39 Y41.07
M5
G0 X-30.1 Y32.75
M3
G1 X-29.4 Y40.72
M5
G0 X-33.74 Y37.08
M3
G1 X-29.75 Y36.73
M5
G0 X-24.12 Y32.23
M3
G1 X-28.11 Y32.57
G1 X-27.41 Y40.54
G1 X-23.43 Y40.19
M5
G0 X-27.76 Y36.56
M3
G1 X-24.57 Y36.28
M5
G0 X-13.18 Y35.28
M3
G1 X-13.24 Y36.92
G1 X-13.71 Y38.31
G1 X-14.5 Y39.22
G1 X-15.47 Y39.48
G1 X-16.46 Y39.05
G1 X-17.3 Y38.0
G1 X-17.83 Y36.52
G1 X-17.98 Y34.87
G1 X-17.71 Y33.32
G1 X-17.06 Y32.15
G1 X-16.16 Y31.55
G1 X-15.16 Y31.64
G1 X-14.23 Y32.39
G1 X-13.52 Y33.68
G1 X-13.18 Y35.28
M5
G0 X-14.98 Y33.03
M3
G1 X-13.52 Y31.3
M5
G0 X-11.63 Y39.16
M3
G1 X-12.19 Y32.79
G1 X-12.19 Y32.79
G1 X-12.09 Y32.23
G1 X-11.72 Y31.71
G1 X-11.11 Y31.3
G1 X-10.35 Y31.04
G1 X-9.52 Y30.97
G1 X-8.72 Y31.09
G1 X-8.06 Y31.39
G1 X-7.6 Y31.84
G1 X-7.41 Y32.37
G1 X-6.85 Y38.74
M5
G0 X-5.55 Y30.6
M3
G1 X-3.16 Y30.39
M5
G0 X-4.36 Y30.5
M3
G1 X-3.66 Y38.47
M5
G0 X-4.86 Y38.57
M3
G1 X-2.47 Y38.36
M5
G0 X3.97 Y31.2
M3
G1 X4.56 Y32.6
G1 X4.78 Y34.22
G1 X4.6 Y35.79
G1 X4.04 Y37.05
G1 X3.2 Y37.78
G1 X2.22 Y37.87
G1 X1.26 Y37.29
G1 X0.49 Y36.15
G1 X0.04 Y34.63
G1 X-0.03 Y33.0
G1 X0.31 Y31.52
M5
G0 X5.6 Y29.62
M3
G1 X6.3 Y37.59
M5
G0 X10.29 Y37.25
M3
G1 X5.92 Y33.21
G1 X9.59 Y29.28
M5
G0 X15.41 Y28.77
M3
G1 X16.1 Y36.74
G1 X17.7 Y36.6
G1 X18.54 Y36.32
G1 X19.19 Y35.71
G1 X19.5 Y34.88
G1 X19.43 Y33.99
G1 X18.97 Y33.23
G1 X18.23 Y32.73
G1 X17.35 Y32.61
G1 X15.75 Y32.75
G1 X17.35 Y32.61
G1 X18.2 Y32.34
G1 X18.84 Y31.73
G1 X19.16 Y30.89
G1 X19.08 Y30.01
G1 X18.62 Y29.24
G1 X17.88 Y28.75
G1 X17.0 Y28.63
G1 X15.41 Y28.77
M5
G0 X21.38 Y28.24
M3
G1 X22.08 Y36.21
G1 X23.67 Y36.07
G1 X24.52 Y35.8
G1 X25.17 Y35.19
G1 X25.48 Y34.35
G1 X25.4 Y33.47
G1 X24.95 Y32.7
G1 X24.21 Y32.21
G1 X23.33 Y32.09
G1 X21.73 Y32.23
M5
G0 X23.72 Y32.05
M3
G1 X26.16 Y27.83
M5
G0 X32.49 Y31.29
M3
G1 X32.45 Y32.74
G1 X32.1 Y34.03
G1 X31.48 Y34.97
G1 X30.67 Y35.44
G1 X29.78 Y35.39
G1 X28.94 Y34.8
G1 X28.25 Y33.77
G1 X27.81 Y32.43
G1 X27.69 Y30.97
G1 X27.88 Y29.58
G1 X28.38 Y28.44
G1 X29.11 Y27.72
G1 X29.97 Y27.51
G1 X30.85 Y27.84
G1 X31.63 Y28.66
G1 X32.2 Y29.86
G1 X32.49 Y31.29
G1 X32.49 Y31.29
M5
G0 X34.03 Y35.17
M3
G1 X34.53 Y27.09
G1 X36.08 Y30.97
G1 X36.92 Y26.88
G1 X38.82 Y34.75
M5
G0 X39.31 Y26.68
M3
G1 X40.01 Y34.64
G1 X44.1 Y26.26
G1 X44.79 Y34.23
M5

; 'FOX' @ 8mm
G0 X-7.48 Y17.72
M3
G1 X-6.79 Y25.69
G1 X-2.8 Y25.34
M5
G0 X-7.14 Y21.7
M3
G1 X-3.95 Y21.43
M5
G0 X3.62 Y20.76
M3
G1 X3.59 Y22.22
G1 X3.23 Y23.5
G1 X2.61 Y24.45
G1 X1.8 Y24.92
G1 X0.91 Y24.86
G1 X0.07 Y24.28
G1 X-0.62 Y23.25
G1 X-1.05 Y21.91
G1 X-1.18 Y20.45
G1 X-0.98 Y19.05
G1 X-0.49 Y17.92
G1 X0.24 Y17.2
G1 X1.11 Y16.99
G1 X1.99 Y17.31
G1 X2.76 Y18.13
G1 X3.34 Y19.34
G1 X3.62 Y20.76
G1 X3.62 Y20.76
M5
G0 X5.17 Y24.64
M3
G1 X9.25 Y16.26
M5
G0 X4.47 Y16.67
M3
G1 X9.95 Y24.23
M5

; 'JUMPS OVER' @ 12mm
G0 X-37.39 Y15.32
M3
G1 X-38.22 Y5.75
G1 X-38.22 Y5.75
G1 X-38.55 Y4.74
G1 X-39.29 Y3.96
G1 X-40.29 Y3.59
G1 X-41.35 Y3.68
G1 X-42.27 Y4.22
G1 X-42.86 Y5.11
G1 X-43.01 Y6.17
G1 X-43.39 Y8.61
M5
G0 X-33.2 Y14.95
M3
G1 X-34.04 Y5.39
G1 X-34.04 Y5.39
G1 X-33.9 Y4.55
G1 X-33.34 Y3.78
G1 X-32.43 Y3.16
G1 X-31.28 Y2.77
G1 X-30.04 Y2.66
G1 X-28.84 Y2.85
G1 X-27.84 Y3.3
G1 X-27.16 Y3.96
G1 X-26.87 Y4.76
G1 X-26.03 Y14.32
M5
G0 X-25.28 Y2.21
M3
G1 X-24.24 Y14.17
G1 X-21.17 Y7.88
G1 X-17.06 Y13.54
G1 X-18.11 Y1.58
M5
G0 X-16.32 Y1.43
M3
G1 X-15.27 Y13.38
G1 X-12.88 Y13.17
G1 X-11.61 Y12.76
G1 X-10.64 Y11.84
G1 X-10.17 Y10.59
G1 X-10.29 Y9.26
G1 X-10.97 Y8.12
G1 X-12.08 Y7.38
G1 X-13.4 Y7.2
G1 X-15.79 Y7.4
M5
G0 X-0.52 Y7.57
M3
G1 X0.02 Y9.18
G1 X-0.4 Y10.83
G1 X-1.65 Y11.98
G1 X-3.32 Y12.28
G1 X-4.88 Y11.62
G1 X-5.84 Y10.22
G1 X-5.88 Y8.52
G1 X-6.4 Y2.54
G1 X-6.45 Y3.88
G1 X-5.92 Y5.1
G1 X-4.91 Y5.97
G1 X-3.62 Y6.32
G1 X-2.3 Y6.07
G1 X-1.23 Y5.27
G1 X-0.61 Y4.09
M5
G0 X15.05 Y4.71
M3
G1 X14.99 Y6.89
G1 X14.46 Y8.82
G1 X13.53 Y10.23
G1 X12.31 Y10.94
G1 X10.98 Y10.86
G1 X9.72 Y9.98
G1 X8.69 Y8.43
G1 X8.03 Y6.43
G1 X7.84 Y4.23
G1 X8.14 Y2.14
G1 X8.88 Y0.44
G1 X9.98 Y-0.64
G1 X11.27 Y-0.96
G1 X12.59 Y-0.47
G1 X13.76 Y0.76
G1 X14.62 Y2.57
G1 X15.05 Y4.71
G1 X15.05 Y4.71
M5
G0 X17.36 Y10.53
M3
G1 X19.9 Y-1.74
G1 X24.54 Y9.9
M5
G0 X31.26 Y-2.73
M3
G1 X25.28 Y-2.21
G1 X26.33 Y9.74
G1 X32.31 Y9.22
M5
G0 X25.81 Y3.77
M3
G1 X30.59 Y3.35
M5
G0 X34.25 Y-3.0
M3
G1 X35.3 Y8.96
G1 X37.69 Y8.75
G1 X38.96 Y8.34
G1 X39.92 Y7.42
G1 X40.4 Y6.17
G1 X40.28 Y4.84
G1 X39.6 Y3.69
G1 X38.49 Y2.95
G1 X37.16 Y2.77
G1 X34.77 Y2.98
M5
G0 X37.76 Y2.72
M3
G1 X41.42 Y-3.62
M5

; 'THE LAZY' @ 14mm
G0 X-40.39 Y-1.49
M3
G1 X-32.03 Y-2.22
M5
G0 X-36.21 Y-1.85
M3
G1 X-37.43 Y-15.8
M5
G0 X-31.15 Y-16.35
M3
G1 X-29.93 Y-2.4
M5
G0 X-24.18 Y-16.96
M3
G1 X-22.96 Y-3.01
M5
G0 X-30.54 Y-9.37
M3
G1 X-23.57 Y-9.98
M5
G0 X-13.72 Y-17.87
M3
G1 X-20.69 Y-17.26
G1 X-19.47 Y-3.32
G1 X-12.5 Y-3.93
M5
G0 X-20.08 Y-10.29
M3
G1 X-14.5 Y-10.78
M5
G0 X-2.32 Y-4.82
M3
G1 X-3.54 Y-18.76
G1 X3.43 Y-19.37
M5
G0 X6.92 Y-19.68
M3
G1 X12.33 Y-6.1
G1 X15.29 Y-20.41
M5
G0 X9.08 Y-14.25
M3
G1 X14.1 Y-14.69
M5
G0 X18.6 Y-6.65
M3
G1 X26.97 Y-7.38
G1 X17.38 Y-20.59
G1 X25.75 Y-21.33
M5
G0 X29.06 Y-7.56
M3
G1 X32.64 Y-14.9
G1 X37.43 Y-8.29
M5
G0 X32.64 Y-14.9
M3
G1 X32.03 Y-21.87
M5

; 'DOG' @ 14mm
G0 X-19.0 Y-36.48
M3
G1 X-17.78 Y-22.54
G1 X-14.99 Y-22.78
G1 X-13.64 Y-23.18
G1 X-12.45 Y-24.12
G1 X-11.51 Y-25.51
G1 X-10.91 Y-27.24
G1 X-10.68 Y-29.18
G1 X-10.86 Y-31.17
G1 X-11.42 Y-33.04
G1 X-12.31 Y-34.64
G1 X-13.48 Y-35.85
G1 X-14.81 Y-36.56
G1 X-16.21 Y-36.73
G1 X-19.0 Y-36.48
M5
G0 X0.44 Y-31.16
M3
G1 X0.37 Y-28.61
G1 X-0.24 Y-26.36
G1 X-1.34 Y-24.71
G1 X-2.75 Y-23.88
G1 X-4.31 Y-23.98
G1 X-5.78 Y-25.01
G1 X-6.98 Y-26.81
G1 X-7.75 Y-29.15
G1 X-7.97 Y-31.71
G1 X-7.63 Y-34.15
G1 X-6.76 Y-36.13
G1 X-5.48 Y-37.4
G1 X-3.97 Y-37.77
G1 X-2.43 Y-37.2
G1 X-1.07 Y-35.76
G1 X-0.07 Y-33.65
G1 X0.44 Y-31.16
G1 X0.44 Y-31.16
M5
G0 X9.53 Y-36.47
M3
G1 X10.5 Y-34.23
G1 X10.93 Y-31.63
G1 X10.75 Y-29.04
G1 X10.0 Y-26.83
G1 X8.78 Y-25.32
G1 X7.26 Y-24.73
G1 X5.66 Y-25.13
G1 X4.21 Y-26.48
G1 X3.12 Y-28.57
G1 X2.55 Y-31.12
G1 X2.57 Y-33.75
G1 X6.71 Y-31.71
G1 X10.2 Y-32.01
M5
M5
G0 X0 Y0
