; Spirograph — 36 ellipses rotated around centre
; Each ellipse: 40mm x 20mm, rotated in 10-degree steps
; Creates a classic rose/spirograph pattern
G28
GOHOME
M5

; Ellipse 1/36 — rotation 0°
G0 X37.86 Y-3.31
M3
G1 X37.74 Y-0.94
G1 X36.97 Y1.44
G1 X35.57 Y3.8
G1 X33.57 Y6.1
G1 X30.99 Y8.29
G1 X27.88 Y10.34
G1 X24.29 Y12.21
G1 X20.29 Y13.87
G1 X15.94 Y15.3
G1 X11.31 Y16.46
G1 X6.5 Y17.35
G1 X1.57 Y17.93
G1 X-3.39 Y18.21
G1 X-8.28 Y18.18
G1 X-13.04 Y17.83
G1 X-17.57 Y17.19
G1 X-21.8 Y16.24
G1 X-25.66 Y15.02
G1 X-29.08 Y13.54
G1 X-32.0 Y11.83
G1 X-34.37 Y9.92
G1 X-36.16 Y7.84
G1 X-37.33 Y5.62
G1 X-37.86 Y3.31
G1 X-37.74 Y0.94
G1 X-36.97 Y-1.44
G1 X-35.57 Y-3.8
G1 X-33.57 Y-6.1
G1 X-30.99 Y-8.29
G1 X-27.88 Y-10.34
G1 X-24.29 Y-12.21
G1 X-20.29 Y-13.87
G1 X-15.94 Y-15.3
G1 X-11.31 Y-16.46
G1 X-6.5 Y-17.35
G1 X-1.57 Y-17.93
G1 X3.39 Y-18.21
G1 X8.28 Y-18.18
G1 X13.04 Y-17.83
G1 X17.57 Y-17.19
G1 X21.8 Y-16.24
G1 X25.66 Y-15.02
G1 X29.08 Y-13.54
G1 X32.0 Y-11.83
G1 X34.37 Y-9.92
G1 X36.16 Y-7.84
G1 X37.33 Y-5.62
G1 X37.86 Y-3.31
M5

; Ellipse 2/36 — rotation 5°
G0 X38.0 Y0.0
M3
G1 X37.67 Y2.35
G1 X36.71 Y4.66
G1 X35.11 Y6.89
G1 X32.91 Y9.0
G1 X30.15 Y10.96
G1 X26.87 Y12.73
G1 X23.13 Y14.28
G1 X19.0 Y15.59
G1 X14.54 Y16.63
G1 X9.84 Y17.39
G1 X4.96 Y17.85
G1 X0.0 Y18.0
G1 X-4.96 Y17.85
G1 X-9.84 Y17.39
G1 X-14.54 Y16.63
G1 X-19.0 Y15.59
G1 X-23.13 Y14.28
G1 X-26.87 Y12.73
G1 X-30.15 Y10.96
G1 X-32.91 Y9.0
G1 X-35.11 Y6.89
G1 X-36.71 Y4.66
G1 X-37.67 Y2.35
G1 X-38.0 Y0.0
G1 X-37.67 Y-2.35
G1 X-36.71 Y-4.66
G1 X-35.11 Y-6.89
G1 X-32.91 Y-9.0
G1 X-30.15 Y-10.96
G1 X-26.87 Y-12.73
G1 X-23.13 Y-14.28
G1 X-19.0 Y-15.59
G1 X-14.54 Y-16.63
G1 X-9.84 Y-17.39
G1 X-4.96 Y-17.85
G1 X-0.0 Y-18.0
G1 X4.96 Y-17.85
G1 X9.84 Y-17.39
G1 X14.54 Y-16.63
G1 X19.0 Y-15.59
G1 X23.13 Y-14.28
G1 X26.87 Y-12.73
G1 X30.15 Y-10.96
G1 X32.91 Y-9.0
G1 X35.11 Y-6.89
G1 X36.71 Y-4.66
G1 X37.67 Y-2.35
G1 X38.0 Y-0.0
M5

; Ellipse 3/36 — rotation 10°
G0 X37.86 Y3.31
M3
G1 X37.33 Y5.62
G1 X36.16 Y7.84
G1 X34.37 Y9.92
G1 X32.0 Y11.83
G1 X29.08 Y13.54
G1 X25.66 Y15.02
G1 X21.8 Y16.24
G1 X17.57 Y17.19
G1 X13.04 Y17.83
G1 X8.28 Y18.18
G1 X3.39 Y18.21
G1 X-1.57 Y17.93
G1 X-6.5 Y17.35
G1 X-11.31 Y16.46
G1 X-15.94 Y15.3
G1 X-20.29 Y13.87
G1 X-24.29 Y12.21
G1 X-27.88 Y10.34
G1 X-30.99 Y8.29
G1 X-33.57 Y6.1
G1 X-35.57 Y3.8
G1 X-36.97 Y1.44
G1 X-37.74 Y-0.94
G1 X-37.86 Y-3.31
G1 X-37.33 Y-5.62
G1 X-36.16 Y-7.84
G1 X-34.37 Y-9.92
G1 X-32.0 Y-11.83
G1 X-29.08 Y-13.54
G1 X-25.66 Y-15.02
G1 X-21.8 Y-16.24
G1 X-17.57 Y-17.19
G1 X-13.04 Y-17.83
G1 X-8.28 Y-18.18
G1 X-3.39 Y-18.21
G1 X1.57 Y-17.93
G1 X6.5 Y-17.35
G1 X11.31 Y-16.46
G1 X15.94 Y-15.3
G1 X20.29 Y-13.87
G1 X24.29 Y-12.21
G1 X27.88 Y-10.34
G1 X30.99 Y-8.29
G1 X33.57 Y-6.1
G1 X35.57 Y-3.8
G1 X36.97 Y-1.44
G1 X37.74 Y0.94
G1 X37.86 Y3.31
M5

; Ellipse 4/36 — rotation 15°
G0 X37.42 Y6.6
M3
G1 X36.69 Y8.86
G1 X35.34 Y10.96
G1 X33.38 Y12.88
G1 X30.85 Y14.58
G1 X27.79 Y16.03
G1 X24.25 Y17.2
G1 X20.3 Y18.08
G1 X16.0 Y18.65
G1 X11.43 Y18.9
G1 X6.67 Y18.83
G1 X1.79 Y18.44
G1 X-3.13 Y17.73
G1 X-7.98 Y16.71
G1 X-12.7 Y15.41
G1 X-17.21 Y13.85
G1 X-21.42 Y12.05
G1 X-25.26 Y10.05
G1 X-28.67 Y7.87
G1 X-31.59 Y5.56
G1 X-33.97 Y3.15
G1 X-35.77 Y0.69
G1 X-36.96 Y-1.79
G1 X-37.51 Y-4.23
G1 X-37.42 Y-6.6
G1 X-36.69 Y-8.86
G1 X-35.34 Y-10.96
G1 X-33.38 Y-12.88
G1 X-30.85 Y-14.58
G1 X-27.79 Y-16.03
G1 X-24.25 Y-17.2
G1 X-20.3 Y-18.08
G1 X-16.0 Y-18.65
G1 X-11.43 Y-18.9
G1 X-6.67 Y-18.83
G1 X-1.79 Y-18.44
G1 X3.13 Y-17.73
G1 X7.98 Y-16.71
G1 X12.7 Y-15.41
G1 X17.21 Y-13.85
G1 X21.42 Y-12.05
G1 X25.26 Y-10.05
G1 X28.67 Y-7.87
G1 X31.59 Y-5.56
G1 X33.97 Y-3.15
G1 X35.77 Y-0.69
G1 X36.96 Y1.79
G1 X37.51 Y4.23
G1 X37.42 Y6.6
M5

; Ellipse 5/36 — rotation 20°
G0 X36.71 Y9.84
M3
G1 X35.78 Y12.02
G1 X34.25 Y14.0
G1 X32.13 Y15.74
G1 X29.46 Y17.21
G1 X26.28 Y18.39
G1 X22.66 Y19.25
G1 X18.65 Y19.78
G1 X14.32 Y19.97
G1 X9.74 Y19.83
G1 X5.0 Y19.34
G1 X0.17 Y18.52
G1 X-4.66 Y17.39
G1 X-9.41 Y15.95
G1 X-14.0 Y14.25
G1 X-18.35 Y12.3
G1 X-22.39 Y10.14
G1 X-26.04 Y7.81
G1 X-29.25 Y5.34
G1 X-31.96 Y2.78
G1 X-34.12 Y0.18
G1 X-35.69 Y-2.43
G1 X-36.66 Y-5.0
G1 X-37.0 Y-7.48
G1 X-36.71 Y-9.84
G1 X-35.78 Y-12.02
G1 X-34.25 Y-14.0
G1 X-32.13 Y-15.74
G1 X-29.46 Y-17.21
G1 X-26.28 Y-18.39
G1 X-22.66 Y-19.25
G1 X-18.65 Y-19.78
G1 X-14.32 Y-19.97
G1 X-9.74 Y-19.83
G1 X-5.0 Y-19.34
G1 X-0.17 Y-18.52
G1 X4.66 Y-17.39
G1 X9.41 Y-15.95
G1 X14.0 Y-14.25
G1 X18.35 Y-12.3
G1 X22.39 Y-10.14
G1 X26.04 Y-7.81
G1 X29.25 Y-5.34
G1 X31.96 Y-2.78
G1 X34.12 Y-0.18
G1 X35.69 Y2.43
G1 X36.66 Y5.0
G1 X37.0 Y7.48
G1 X36.71 Y9.84
M5

; Ellipse 6/36 — rotation 25°
G0 X35.71 Y13.0
M3
G1 X34.6 Y15.09
G1 X32.9 Y16.93
G1 X30.63 Y18.48
G1 X27.85 Y19.71
G1 X24.58 Y20.61
G1 X20.9 Y21.15
G1 X16.85 Y21.33
G1 X12.52 Y21.15
G1 X7.98 Y20.6
G1 X3.3 Y19.7
G1 X-1.44 Y18.47
G1 X-6.16 Y16.91
G1 X-10.76 Y15.07
G1 X-15.19 Y12.97
G1 X-19.35 Y10.65
G1 X-23.19 Y8.15
G1 X-26.62 Y5.51
G1 X-29.6 Y2.77
G1 X-32.08 Y-0.01
G1 X-34.0 Y-2.8
G1 X-35.35 Y-5.53
G1 X-36.08 Y-8.18
G1 X-36.21 Y-10.68
G1 X-35.71 Y-13.0
G1 X-34.6 Y-15.09
G1 X-32.9 Y-16.93
G1 X-30.63 Y-18.48
G1 X-27.85 Y-19.71
G1 X-24.58 Y-20.61
G1 X-20.9 Y-21.15
G1 X-16.85 Y-21.33
G1 X-12.52 Y-21.15
G1 X-7.98 Y-20.6
G1 X-3.3 Y-19.7
G1 X1.44 Y-18.47
G1 X6.16 Y-16.91
G1 X10.76 Y-15.07
G1 X15.19 Y-12.97
G1 X19.35 Y-10.65
G1 X23.19 Y-8.15
G1 X26.62 Y-5.51
G1 X29.6 Y-2.77
G1 X32.08 Y0.01
G1 X34.0 Y2.8
G1 X35.35 Y5.53
G1 X36.08 Y8.18
G1 X36.21 Y10.68
G1 X35.71 Y13.0
M5

; Ellipse 7/36 — rotation 30°
G0 X34.44 Y16.06
M3
G1 X33.15 Y18.05
G1 X31.3 Y19.73
G1 X28.91 Y21.08
G1 X26.02 Y22.06
G1 X22.69 Y22.67
G1 X18.97 Y22.89
G1 X14.93 Y22.72
G1 X10.63 Y22.16
G1 X6.15 Y21.22
G1 X1.57 Y19.91
G1 X-3.05 Y18.27
G1 X-7.61 Y16.31
G1 X-12.04 Y14.08
G1 X-16.26 Y11.6
G1 X-20.21 Y8.93
G1 X-23.81 Y6.1
G1 X-27.0 Y3.17
G1 X-29.73 Y0.18
G1 X-31.95 Y-2.81
G1 X-33.63 Y-5.75
G1 X-34.73 Y-8.59
G1 X-35.24 Y-11.29
G1 X-35.14 Y-13.79
G1 X-34.44 Y-16.06
G1 X-33.15 Y-18.05
G1 X-31.3 Y-19.73
G1 X-28.91 Y-21.08
G1 X-26.02 Y-22.06
G1 X-22.69 Y-22.67
G1 X-18.97 Y-22.89
G1 X-14.93 Y-22.72
G1 X-10.63 Y-22.16
G1 X-6.15 Y-21.22
G1 X-1.57 Y-19.91
G1 X3.05 Y-18.27
G1 X7.61 Y-16.31
G1 X12.04 Y-14.08
G1 X16.26 Y-11.6
G1 X20.21 Y-8.93
G1 X23.81 Y-6.1
G1 X27.0 Y-3.17
G1 X29.73 Y-0.18
G1 X31.95 Y2.81
G1 X33.63 Y5.75
G1 X34.73 Y8.59
G1 X35.24 Y11.29
G1 X35.14 Y13.79
G1 X34.44 Y16.06
M5

; Ellipse 8/36 — rotation 35°
G0 X32.91 Y19.0
M3
G1 X31.45 Y20.87
G1 X29.46 Y22.39
G1 X26.96 Y23.52
G1 X24.0 Y24.25
G1 X20.63 Y24.56
G1 X16.91 Y24.46
G1 X12.89 Y23.93
G1 X8.66 Y23.0
G1 X4.28 Y21.67
G1 X-0.18 Y19.97
G1 X-4.63 Y17.94
G1 X-9.0 Y15.59
G1 X-13.22 Y12.98
G1 X-17.21 Y10.14
G1 X-20.91 Y7.13
G1 X-24.25 Y4.0
G1 X-27.17 Y0.8
G1 X-29.63 Y-2.41
G1 X-31.59 Y-5.58
G1 X-33.0 Y-8.66
G1 X-33.85 Y-11.59
G1 X-34.12 Y-14.32
G1 X-33.8 Y-16.8
G1 X-32.91 Y-19.0
G1 X-31.45 Y-20.87
G1 X-29.46 Y-22.39
G1 X-26.96 Y-23.52
G1 X-24.0 Y-24.25
G1 X-20.63 Y-24.56
G1 X-16.91 Y-24.46
G1 X-12.89 Y-23.93
G1 X-8.66 Y-23.0
G1 X-4.28 Y-21.67
G1 X0.18 Y-19.97
G1 X4.63 Y-17.94
G1 X9.0 Y-15.59
G1 X13.22 Y-12.98
G1 X17.21 Y-10.14
G1 X20.91 Y-7.13
G1 X24.25 Y-4.0
G1 X27.17 Y-0.8
G1 X29.63 Y2.41
G1 X31.59 Y5.58
G1 X33.0 Y8.66
G1 X33.85 Y11.59
G1 X34.12 Y14.32
G1 X33.8 Y16.8
G1 X32.91 Y19.0
M5

; Ellipse 9/36 — rotation 40°
G0 X31.13 Y21.8
M3
G1 X29.51 Y23.53
G1 X27.39 Y24.87
G1 X24.81 Y25.78
G1 X21.8 Y26.25
G1 X18.41 Y26.27
G1 X14.71 Y25.84
G1 X10.76 Y24.97
G1 X6.62 Y23.67
G1 X2.37 Y21.96
G1 X-1.92 Y19.88
G1 X-6.17 Y17.46
G1 X-10.32 Y14.74
G1 X-14.3 Y11.77
G1 X-18.03 Y8.6
G1 X-21.45 Y5.28
G1 X-24.51 Y1.87
G1 X-27.14 Y-1.57
G1 X-29.31 Y-4.99
G1 X-30.98 Y-8.32
G1 X-32.12 Y-11.5
G1 X-32.71 Y-14.49
G1 X-32.74 Y-17.24
G1 X-32.21 Y-19.68
G1 X-31.13 Y-21.8
G1 X-29.51 Y-23.53
G1 X-27.39 Y-24.87
G1 X-24.81 Y-25.78
G1 X-21.8 Y-26.25
G1 X-18.41 Y-26.27
G1 X-14.71 Y-25.84
G1 X-10.76 Y-24.97
G1 X-6.62 Y-23.67
G1 X-2.37 Y-21.96
G1 X1.92 Y-19.88
G1 X6.17 Y-17.46
G1 X10.32 Y-14.74
G1 X14.3 Y-11.77
G1 X18.03 Y-8.6
G1 X21.45 Y-5.28
G1 X24.51 Y-1.87
G1 X27.14 Y1.57
G1 X29.31 Y4.99
G1 X30.98 Y8.32
G1 X32.12 Y11.5
G1 X32.71 Y14.49
G1 X32.74 Y17.24
G1 X32.21 Y19.68
G1 X31.13 Y21.8
M5

; Ellipse 10/36 — rotation 45°
G0 X29.11 Y24.43
M3
G1 X27.35 Y26.02
G1 X25.12 Y27.16
G1 X22.47 Y27.84
G1 X19.42 Y28.05
G1 X16.05 Y27.77
G1 X12.4 Y27.02
G1 X8.54 Y25.81
G1 X4.53 Y24.15
G1 X0.45 Y22.09
G1 X-3.64 Y19.64
G1 X-7.67 Y16.86
G1 X-11.57 Y13.79
G1 X-15.27 Y10.48
G1 X-18.71 Y7.0
G1 X-21.83 Y3.39
G1 X-24.57 Y-0.27
G1 X-26.9 Y-3.93
G1 X-28.77 Y-7.52
G1 X-30.14 Y-10.98
G1 X-30.99 Y-14.26
G1 X-31.32 Y-17.29
G1 X-31.11 Y-20.02
G1 X-30.37 Y-22.42
G1 X-29.11 Y-24.43
G1 X-27.35 Y-26.02
G1 X-25.12 Y-27.16
G1 X-22.47 Y-27.84
G1 X-19.42 Y-28.05
G1 X-16.05 Y-27.77
G1 X-12.4 Y-27.02
G1 X-8.54 Y-25.81
G1 X-4.53 Y-24.15
G1 X-0.45 Y-22.09
G1 X3.64 Y-19.64
G1 X7.67 Y-16.86
G1 X11.57 Y-13.79
G1 X15.27 Y-10.48
G1 X18.71 Y-7.0
G1 X21.83 Y-3.39
G1 X24.57 Y0.27
G1 X26.9 Y3.93
G1 X28.77 Y7.52
G1 X30.14 Y10.98
G1 X30.99 Y14.26
G1 X31.32 Y17.29
G1 X31.11 Y20.02
G1 X30.37 Y22.42
G1 X29.11 Y24.43
M5

; Ellipse 11/36 — rotation 50°
G0 X26.87 Y26.87
M3
G1 X24.98 Y28.3
G1 X22.66 Y29.25
G1 X19.95 Y29.7
G1 X16.91 Y29.63
G1 X13.57 Y29.07
G1 X10.0 Y28.0
G1 X6.26 Y26.46
G1 X2.41 Y24.46
G1 X-1.48 Y22.04
G1 X-5.34 Y19.25
G1 X-9.11 Y16.13
G1 X-12.73 Y12.73
G1 X-16.13 Y9.11
G1 X-19.25 Y5.34
G1 X-22.04 Y1.48
G1 X-24.46 Y-2.41
G1 X-26.46 Y-6.26
G1 X-28.0 Y-10.0
G1 X-29.07 Y-13.57
G1 X-29.63 Y-16.91
G1 X-29.7 Y-19.95
G1 X-29.25 Y-22.66
G1 X-28.3 Y-24.98
G1 X-26.87 Y-26.87
G1 X-24.98 Y-28.3
G1 X-22.66 Y-29.25
G1 X-19.95 Y-29.7
G1 X-16.91 Y-29.63
G1 X-13.57 Y-29.07
G1 X-10.0 Y-28.0
G1 X-6.26 Y-26.46
G1 X-2.41 Y-24.46
G1 X1.48 Y-22.04
G1 X5.34 Y-19.25
G1 X9.11 Y-16.13
G1 X12.73 Y-12.73
G1 X16.13 Y-9.11
G1 X19.25 Y-5.34
G1 X22.04 Y-1.48
G1 X24.46 Y2.41
G1 X26.46 Y6.26
G1 X28.0 Y10.0
G1 X29.07 Y13.57
G1 X29.63 Y16.91
G1 X29.7 Y19.95
G1 X29.25 Y22.66
G1 X28.3 Y24.98
G1 X26.87 Y26.87
M5

; Ellipse 12/36 — rotation 55°
G0 X24.43 Y29.11
M3
G1 X22.42 Y30.37
G1 X20.02 Y31.11
G1 X17.29 Y31.32
G1 X14.26 Y30.99
G1 X10.98 Y30.14
G1 X7.52 Y28.77
G1 X3.93 Y26.9
G1 X0.27 Y24.57
G1 X-3.39 Y21.83
G1 X-7.0 Y18.71
G1 X-10.48 Y15.27
G1 X-13.79 Y11.57
G1 X-16.86 Y7.67
G1 X-19.64 Y3.64
G1 X-22.09 Y-0.45
G1 X-24.15 Y-4.53
G1 X-25.81 Y-8.54
G1 X-27.02 Y-12.4
G1 X-27.77 Y-16.05
G1 X-28.05 Y-19.42
G1 X-27.84 Y-22.47
G1 X-27.16 Y-25.12
G1 X-26.02 Y-27.35
G1 X-24.43 Y-29.11
G1 X-22.42 Y-30.37
G1 X-20.02 Y-31.11
G1 X-17.29 Y-31.32
G1 X-14.26 Y-30.99
G1 X-10.98 Y-30.14
G1 X-7.52 Y-28.77
G1 X-3.93 Y-26.9
G1 X-0.27 Y-24.57
G1 X3.39 Y-21.83
G1 X7.0 Y-18.71
G1 X10.48 Y-15.27
G1 X13.79 Y-11.57
G1 X16.86 Y-7.67
G1 X19.64 Y-3.64
G1 X22.09 Y0.45
G1 X24.15 Y4.53
G1 X25.81 Y8.54
G1 X27.02 Y12.4
G1 X27.77 Y16.05
G1 X28.05 Y19.42
G1 X27.84 Y22.47
G1 X27.16 Y25.12
G1 X26.02 Y27.35
G1 X24.43 Y29.11
M5

; Ellipse 13/36 — rotation 60°
G0 X21.8 Y31.13
M3
G1 X19.68 Y32.21
G1 X17.24 Y32.74
G1 X14.49 Y32.71
G1 X11.5 Y32.12
G1 X8.32 Y30.98
G1 X4.99 Y29.31
G1 X1.57 Y27.14
G1 X-1.87 Y24.51
G1 X-5.28 Y21.45
G1 X-8.6 Y18.03
G1 X-11.77 Y14.3
G1 X-14.74 Y10.32
G1 X-17.46 Y6.17
G1 X-19.88 Y1.92
G1 X-21.96 Y-2.37
G1 X-23.67 Y-6.62
G1 X-24.97 Y-10.76
G1 X-25.84 Y-14.71
G1 X-26.27 Y-18.41
G1 X-26.25 Y-21.8
G1 X-25.78 Y-24.81
G1 X-24.87 Y-27.39
G1 X-23.53 Y-29.51
G1 X-21.8 Y-31.13
G1 X-19.68 Y-32.21
G1 X-17.24 Y-32.74
G1 X-14.49 Y-32.71
G1 X-11.5 Y-32.12
G1 X-8.32 Y-30.98
G1 X-4.99 Y-29.31
G1 X-1.57 Y-27.14
G1 X1.87 Y-24.51
G1 X5.28 Y-21.45
G1 X8.6 Y-18.03
G1 X11.77 Y-14.3
G1 X14.74 Y-10.32
G1 X17.46 Y-6.17
G1 X19.88 Y-1.92
G1 X21.96 Y2.37
G1 X23.67 Y6.62
G1 X24.97 Y10.76
G1 X25.84 Y14.71
G1 X26.27 Y18.41
G1 X26.25 Y21.8
G1 X25.78 Y24.81
G1 X24.87 Y27.39
G1 X23.53 Y29.51
G1 X21.8 Y31.13
M5

; Ellipse 14/36 — rotation 65°
G0 X19.0 Y32.91
M3
G1 X16.8 Y33.8
G1 X14.32 Y34.12
G1 X11.59 Y33.85
G1 X8.66 Y33.0
G1 X5.58 Y31.59
G1 X2.41 Y29.63
G1 X-0.8 Y27.17
G1 X-4.0 Y24.25
G1 X-7.13 Y20.91
G1 X-10.14 Y17.21
G1 X-12.98 Y13.22
G1 X-15.59 Y9.0
G1 X-17.94 Y4.63
G1 X-19.97 Y0.18
G1 X-21.67 Y-4.28
G1 X-23.0 Y-8.66
G1 X-23.93 Y-12.89
G1 X-24.46 Y-16.91
G1 X-24.56 Y-20.63
G1 X-24.25 Y-24.0
G1 X-23.52 Y-26.96
G1 X-22.39 Y-29.46
G1 X-20.87 Y-31.45
G1 X-19.0 Y-32.91
G1 X-16.8 Y-33.8
G1 X-14.32 Y-34.12
G1 X-11.59 Y-33.85
G1 X-8.66 Y-33.0
G1 X-5.58 Y-31.59
G1 X-2.41 Y-29.63
G1 X0.8 Y-27.17
G1 X4.0 Y-24.25
G1 X7.13 Y-20.91
G1 X10.14 Y-17.21
G1 X12.98 Y-13.22
G1 X15.59 Y-9.0
G1 X17.94 Y-4.63
G1 X19.97 Y-0.18
G1 X21.67 Y4.28
G1 X23.0 Y8.66
G1 X23.93 Y12.89
G1 X24.46 Y16.91
G1 X24.56 Y20.63
G1 X24.25 Y24.0
G1 X23.52 Y26.96
G1 X22.39 Y29.46
G1 X20.87 Y31.45
G1 X19.0 Y32.91
M5

; Ellipse 15/36 — rotation 70°
G0 X16.06 Y34.44
M3
G1 X13.79 Y35.14
G1 X11.29 Y35.24
G1 X8.59 Y34.73
G1 X5.75 Y33.63
G1 X2.81 Y31.95
G1 X-0.18 Y29.73
G1 X-3.17 Y27.0
G1 X-6.1 Y23.81
G1 X-8.93 Y20.21
G1 X-11.6 Y16.26
G1 X-14.08 Y12.04
G1 X-16.31 Y7.61
G1 X-18.27 Y3.05
G1 X-19.91 Y-1.57
G1 X-21.22 Y-6.15
G1 X-22.16 Y-10.63
G1 X-22.72 Y-14.93
G1 X-22.89 Y-18.97
G1 X-22.67 Y-22.69
G1 X-22.06 Y-26.02
G1 X-21.08 Y-28.91
G1 X-19.73 Y-31.3
G1 X-18.05 Y-33.15
G1 X-16.06 Y-34.44
G1 X-13.79 Y-35.14
G1 X-11.29 Y-35.24
G1 X-8.59 Y-34.73
G1 X-5.75 Y-33.63
G1 X-2.81 Y-31.95
G1 X0.18 Y-29.73
G1 X3.17 Y-27.0
G1 X6.1 Y-23.81
G1 X8.93 Y-20.21
G1 X11.6 Y-16.26
G1 X14.08 Y-12.04
G1 X16.31 Y-7.61
G1 X18.27 Y-3.05
G1 X19.91 Y1.57
G1 X21.22 Y6.15
G1 X22.16 Y10.63
G1 X22.72 Y14.93
G1 X22.89 Y18.97
G1 X22.67 Y22.69
G1 X22.06 Y26.02
G1 X21.08 Y28.91
G1 X19.73 Y31.3
G1 X18.05 Y33.15
G1 X16.06 Y34.44
M5

; Ellipse 16/36 — rotation 75°
G0 X13.0 Y35.71
M3
G1 X10.68 Y36.21
G1 X8.18 Y36.08
G1 X5.53 Y35.35
G1 X2.8 Y34.0
G1 X0.01 Y32.08
G1 X-2.77 Y29.6
G1 X-5.51 Y26.62
G1 X-8.15 Y23.19
G1 X-10.65 Y19.35
G1 X-12.97 Y15.19
G1 X-15.07 Y10.76
G1 X-16.91 Y6.16
G1 X-18.47 Y1.44
G1 X-19.7 Y-3.3
G1 X-20.6 Y-7.98
G1 X-21.15 Y-12.52
G1 X-21.33 Y-16.85
G1 X-21.15 Y-20.9
G1 X-20.61 Y-24.58
G1 X-19.71 Y-27.85
G1 X-18.48 Y-30.63
G1 X-16.93 Y-32.9
G1 X-15.09 Y-34.6
G1 X-13.0 Y-35.71
G1 X-10.68 Y-36.21
G1 X-8.18 Y-36.08
G1 X-5.53 Y-35.35
G1 X-2.8 Y-34.0
G1 X-0.01 Y-32.08
G1 X2.77 Y-29.6
G1 X5.51 Y-26.62
G1 X8.15 Y-23.19
G1 X10.65 Y-19.35
G1 X12.97 Y-15.19
G1 X15.07 Y-10.76
G1 X16.91 Y-6.16
G1 X18.47 Y-1.44
G1 X19.7 Y3.3
G1 X20.6 Y7.98
G1 X21.15 Y12.52
G1 X21.33 Y16.85
G1 X21.15 Y20.9
G1 X20.61 Y24.58
G1 X19.71 Y27.85
G1 X18.48 Y30.63
G1 X16.93 Y32.9
G1 X15.09 Y34.6
G1 X13.0 Y35.71
M5

; Ellipse 17/36 — rotation 80°
G0 X9.84 Y36.71
M3
G1 X7.48 Y37.0
G1 X5.0 Y36.66
G1 X2.43 Y35.69
G1 X-0.18 Y34.12
G1 X-2.78 Y31.96
G1 X-5.34 Y29.25
G1 X-7.81 Y26.04
G1 X-10.14 Y22.39
G1 X-12.3 Y18.35
G1 X-14.25 Y14.0
G1 X-15.95 Y9.41
G1 X-17.39 Y4.66
G1 X-18.52 Y-0.17
G1 X-19.34 Y-5.0
G1 X-19.83 Y-9.74
G1 X-19.97 Y-14.32
G1 X-19.78 Y-18.65
G1 X-19.25 Y-22.66
G1 X-18.39 Y-26.28
G1 X-17.21 Y-29.46
G1 X-15.74 Y-32.13
G1 X-14.0 Y-34.25
G1 X-12.02 Y-35.78
G1 X-9.84 Y-36.71
G1 X-7.48 Y-37.0
G1 X-5.0 Y-36.66
G1 X-2.43 Y-35.69
G1 X0.18 Y-34.12
G1 X2.78 Y-31.96
G1 X5.34 Y-29.25
G1 X7.81 Y-26.04
G1 X10.14 Y-22.39
G1 X12.3 Y-18.35
G1 X14.25 Y-14.0
G1 X15.95 Y-9.41
G1 X17.39 Y-4.66
G1 X18.52 Y0.17
G1 X19.34 Y5.0
G1 X19.83 Y9.74
G1 X19.97 Y14.32
G1 X19.78 Y18.65
G1 X19.25 Y22.66
G1 X18.39 Y26.28
G1 X17.21 Y29.46
G1 X15.74 Y32.13
G1 X14.0 Y34.25
G1 X12.02 Y35.78
G1 X9.84 Y36.71
M5

; Ellipse 18/36 — rotation 85°
G0 X6.6 Y37.42
M3
G1 X4.23 Y37.51
G1 X1.79 Y36.96
G1 X-0.69 Y35.77
G1 X-3.15 Y33.97
G1 X-5.56 Y31.59
G1 X-7.87 Y28.67
G1 X-10.05 Y25.26
G1 X-12.05 Y21.42
G1 X-13.85 Y17.21
G1 X-15.41 Y12.7
G1 X-16.71 Y7.98
G1 X-17.73 Y3.13
G1 X-18.44 Y-1.79
G1 X-18.83 Y-6.67
G1 X-18.9 Y-11.43
G1 X-18.65 Y-16.0
G1 X-18.08 Y-20.3
G1 X-17.2 Y-24.25
G1 X-16.03 Y-27.79
G1 X-14.58 Y-30.85
G1 X-12.88 Y-33.38
G1 X-10.96 Y-35.34
G1 X-8.86 Y-36.69
G1 X-6.6 Y-37.42
G1 X-4.23 Y-37.51
G1 X-1.79 Y-36.96
G1 X0.69 Y-35.77
G1 X3.15 Y-33.97
G1 X5.56 Y-31.59
G1 X7.87 Y-28.67
G1 X10.05 Y-25.26
G1 X12.05 Y-21.42
G1 X13.85 Y-17.21
G1 X15.41 Y-12.7
G1 X16.71 Y-7.98
G1 X17.73 Y-3.13
G1 X18.44 Y1.79
G1 X18.83 Y6.67
G1 X18.9 Y11.43
G1 X18.65 Y16.0
G1 X18.08 Y20.3
G1 X17.2 Y24.25
G1 X16.03 Y27.79
G1 X14.58 Y30.85
G1 X12.88 Y33.38
G1 X10.96 Y35.34
G1 X8.86 Y36.69
G1 X6.6 Y37.42
M5

; Ellipse 19/36 — rotation 90°
G0 X3.31 Y37.86
M3
G1 X0.94 Y37.74
G1 X-1.44 Y36.97
G1 X-3.8 Y35.57
G1 X-6.1 Y33.57
G1 X-8.29 Y30.99
G1 X-10.34 Y27.88
G1 X-12.21 Y24.29
G1 X-13.87 Y20.29
G1 X-15.3 Y15.94
G1 X-16.46 Y11.31
G1 X-17.35 Y6.5
G1 X-17.93 Y1.57
G1 X-18.21 Y-3.39
G1 X-18.18 Y-8.28
G1 X-17.83 Y-13.04
G1 X-17.19 Y-17.57
G1 X-16.24 Y-21.8
G1 X-15.02 Y-25.66
G1 X-13.54 Y-29.08
G1 X-11.83 Y-32.0
G1 X-9.92 Y-34.37
G1 X-7.84 Y-36.16
G1 X-5.62 Y-37.33
G1 X-3.31 Y-37.86
G1 X-0.94 Y-37.74
G1 X1.44 Y-36.97
G1 X3.8 Y-35.57
G1 X6.1 Y-33.57
G1 X8.29 Y-30.99
G1 X10.34 Y-27.88
G1 X12.21 Y-24.29
G1 X13.87 Y-20.29
G1 X15.3 Y-15.94
G1 X16.46 Y-11.31
G1 X17.35 Y-6.5
G1 X17.93 Y-1.57
G1 X18.21 Y3.39
G1 X18.18 Y8.28
G1 X17.83 Y13.04
G1 X17.19 Y17.57
G1 X16.24 Y21.8
G1 X15.02 Y25.66
G1 X13.54 Y29.08
G1 X11.83 Y32.0
G1 X9.92 Y34.37
G1 X7.84 Y36.16
G1 X5.62 Y37.33
G1 X3.31 Y37.86
M5

; Ellipse 20/36 — rotation 95°
G0 X-0.0 Y38.0
M3
G1 X-2.35 Y37.67
G1 X-4.66 Y36.71
G1 X-6.89 Y35.11
G1 X-9.0 Y32.91
G1 X-10.96 Y30.15
G1 X-12.73 Y26.87
G1 X-14.28 Y23.13
G1 X-15.59 Y19.0
G1 X-16.63 Y14.54
G1 X-17.39 Y9.84
G1 X-17.85 Y4.96
G1 X-18.0 Y0.0
G1 X-17.85 Y-4.96
G1 X-17.39 Y-9.84
G1 X-16.63 Y-14.54
G1 X-15.59 Y-19.0
G1 X-14.28 Y-23.13
G1 X-12.73 Y-26.87
G1 X-10.96 Y-30.15
G1 X-9.0 Y-32.91
G1 X-6.89 Y-35.11
G1 X-4.66 Y-36.71
G1 X-2.35 Y-37.67
G1 X0.0 Y-38.0
G1 X2.35 Y-37.67
G1 X4.66 Y-36.71
G1 X6.89 Y-35.11
G1 X9.0 Y-32.91
G1 X10.96 Y-30.15
G1 X12.73 Y-26.87
G1 X14.28 Y-23.13
G1 X15.59 Y-19.0
G1 X16.63 Y-14.54
G1 X17.39 Y-9.84
G1 X17.85 Y-4.96
G1 X18.0 Y-0.0
G1 X17.85 Y4.96
G1 X17.39 Y9.84
G1 X16.63 Y14.54
G1 X15.59 Y19.0
G1 X14.28 Y23.13
G1 X12.73 Y26.87
G1 X10.96 Y30.15
G1 X9.0 Y32.91
G1 X6.89 Y35.11
G1 X4.66 Y36.71
G1 X2.35 Y37.67
G1 X0.0 Y38.0
M5

; Ellipse 21/36 — rotation 100°
G0 X-3.31 Y37.86
M3
G1 X-5.62 Y37.33
G1 X-7.84 Y36.16
G1 X-9.92 Y34.37
G1 X-11.83 Y32.0
G1 X-13.54 Y29.08
G1 X-15.02 Y25.66
G1 X-16.24 Y21.8
G1 X-17.19 Y17.57
G1 X-17.83 Y13.04
G1 X-18.18 Y8.28
G1 X-18.21 Y3.39
G1 X-17.93 Y-1.57
G1 X-17.35 Y-6.5
G1 X-16.46 Y-11.31
G1 X-15.3 Y-15.94
G1 X-13.87 Y-20.29
G1 X-12.21 Y-24.29
G1 X-10.34 Y-27.88
G1 X-8.29 Y-30.99
G1 X-6.1 Y-33.57
G1 X-3.8 Y-35.57
G1 X-1.44 Y-36.97
G1 X0.94 Y-37.74
G1 X3.31 Y-37.86
G1 X5.62 Y-37.33
G1 X7.84 Y-36.16
G1 X9.92 Y-34.37
G1 X11.83 Y-32.0
G1 X13.54 Y-29.08
G1 X15.02 Y-25.66
G1 X16.24 Y-21.8
G1 X17.19 Y-17.57
G1 X17.83 Y-13.04
G1 X18.18 Y-8.28
G1 X18.21 Y-3.39
G1 X17.93 Y1.57
G1 X17.35 Y6.5
G1 X16.46 Y11.31
G1 X15.3 Y15.94
G1 X13.87 Y20.29
G1 X12.21 Y24.29
G1 X10.34 Y27.88
G1 X8.29 Y30.99
G1 X6.1 Y33.57
G1 X3.8 Y35.57
G1 X1.44 Y36.97
G1 X-0.94 Y37.74
G1 X-3.31 Y37.86
M5

; Ellipse 22/36 — rotation 105°
G0 X-6.6 Y37.42
M3
G1 X-8.86 Y36.69
G1 X-10.96 Y35.34
G1 X-12.88 Y33.38
G1 X-14.58 Y30.85
G1 X-16.03 Y27.79
G1 X-17.2 Y24.25
G1 X-18.08 Y20.3
G1 X-18.65 Y16.0
G1 X-18.9 Y11.43
G1 X-18.83 Y6.67
G1 X-18.44 Y1.79
G1 X-17.73 Y-3.13
G1 X-16.71 Y-7.98
G1 X-15.41 Y-12.7
G1 X-13.85 Y-17.21
G1 X-12.05 Y-21.42
G1 X-10.05 Y-25.26
G1 X-7.87 Y-28.67
G1 X-5.56 Y-31.59
G1 X-3.15 Y-33.97
G1 X-0.69 Y-35.77
G1 X1.79 Y-36.96
G1 X4.23 Y-37.51
G1 X6.6 Y-37.42
G1 X8.86 Y-36.69
G1 X10.96 Y-35.34
G1 X12.88 Y-33.38
G1 X14.58 Y-30.85
G1 X16.03 Y-27.79
G1 X17.2 Y-24.25
G1 X18.08 Y-20.3
G1 X18.65 Y-16.0
G1 X18.9 Y-11.43
G1 X18.83 Y-6.67
G1 X18.44 Y-1.79
G1 X17.73 Y3.13
G1 X16.71 Y7.98
G1 X15.41 Y12.7
G1 X13.85 Y17.21
G1 X12.05 Y21.42
G1 X10.05 Y25.26
G1 X7.87 Y28.67
G1 X5.56 Y31.59
G1 X3.15 Y33.97
G1 X0.69 Y35.77
G1 X-1.79 Y36.96
G1 X-4.23 Y37.51
G1 X-6.6 Y37.42
M5

; Ellipse 23/36 — rotation 110°
G0 X-9.84 Y36.71
M3
G1 X-12.02 Y35.78
G1 X-14.0 Y34.25
G1 X-15.74 Y32.13
G1 X-17.21 Y29.46
G1 X-18.39 Y26.28
G1 X-19.25 Y22.66
G1 X-19.78 Y18.65
G1 X-19.97 Y14.32
G1 X-19.83 Y9.74
G1 X-19.34 Y5.0
G1 X-18.52 Y0.17
G1 X-17.39 Y-4.66
G1 X-15.95 Y-9.41
G1 X-14.25 Y-14.0
G1 X-12.3 Y-18.35
G1 X-10.14 Y-22.39
G1 X-7.81 Y-26.04
G1 X-5.34 Y-29.25
G1 X-2.78 Y-31.96
G1 X-0.18 Y-34.12
G1 X2.43 Y-35.69
G1 X5.0 Y-36.66
G1 X7.48 Y-37.0
G1 X9.84 Y-36.71
G1 X12.02 Y-35.78
G1 X14.0 Y-34.25
G1 X15.74 Y-32.13
G1 X17.21 Y-29.46
G1 X18.39 Y-26.28
G1 X19.25 Y-22.66
G1 X19.78 Y-18.65
G1 X19.97 Y-14.32
G1 X19.83 Y-9.74
G1 X19.34 Y-5.0
G1 X18.52 Y-0.17
G1 X17.39 Y4.66
G1 X15.95 Y9.41
G1 X14.25 Y14.0
G1 X12.3 Y18.35
G1 X10.14 Y22.39
G1 X7.81 Y26.04
G1 X5.34 Y29.25
G1 X2.78 Y31.96
G1 X0.18 Y34.12
G1 X-2.43 Y35.69
G1 X-5.0 Y36.66
G1 X-7.48 Y37.0
G1 X-9.84 Y36.71
M5

; Ellipse 24/36 — rotation 115°
G0 X-13.0 Y35.71
M3
G1 X-15.09 Y34.6
G1 X-16.93 Y32.9
G1 X-18.48 Y30.63
G1 X-19.71 Y27.85
G1 X-20.61 Y24.58
G1 X-21.15 Y20.9
G1 X-21.33 Y16.85
G1 X-21.15 Y12.52
G1 X-20.6 Y7.98
G1 X-19.7 Y3.3
G1 X-18.47 Y-1.44
G1 X-16.91 Y-6.16
G1 X-15.07 Y-10.76
G1 X-12.97 Y-15.19
G1 X-10.65 Y-19.35
G1 X-8.15 Y-23.19
G1 X-5.51 Y-26.62
G1 X-2.77 Y-29.6
G1 X0.01 Y-32.08
G1 X2.8 Y-34.0
G1 X5.53 Y-35.35
G1 X8.18 Y-36.08
G1 X10.68 Y-36.21
G1 X13.0 Y-35.71
G1 X15.09 Y-34.6
G1 X16.93 Y-32.9
G1 X18.48 Y-30.63
G1 X19.71 Y-27.85
G1 X20.61 Y-24.58
G1 X21.15 Y-20.9
G1 X21.33 Y-16.85
G1 X21.15 Y-12.52
G1 X20.6 Y-7.98
G1 X19.7 Y-3.3
G1 X18.47 Y1.44
G1 X16.91 Y6.16
G1 X15.07 Y10.76
G1 X12.97 Y15.19
G1 X10.65 Y19.35
G1 X8.15 Y23.19
G1 X5.51 Y26.62
G1 X2.77 Y29.6
G1 X-0.01 Y32.08
G1 X-2.8 Y34.0
G1 X-5.53 Y35.35
G1 X-8.18 Y36.08
G1 X-10.68 Y36.21
G1 X-13.0 Y35.71
M5

; Ellipse 25/36 — rotation 120°
G0 X-16.06 Y34.44
M3
G1 X-18.05 Y33.15
G1 X-19.73 Y31.3
G1 X-21.08 Y28.91
G1 X-22.06 Y26.02
G1 X-22.67 Y22.69
G1 X-22.89 Y18.97
G1 X-22.72 Y14.93
G1 X-22.16 Y10.63
G1 X-21.22 Y6.15
G1 X-19.91 Y1.57
G1 X-18.27 Y-3.05
G1 X-16.31 Y-7.61
G1 X-14.08 Y-12.04
G1 X-11.6 Y-16.26
G1 X-8.93 Y-20.21
G1 X-6.1 Y-23.81
G1 X-3.17 Y-27.0
G1 X-0.18 Y-29.73
G1 X2.81 Y-31.95
G1 X5.75 Y-33.63
G1 X8.59 Y-34.73
G1 X11.29 Y-35.24
G1 X13.79 Y-35.14
G1 X16.06 Y-34.44
G1 X18.05 Y-33.15
G1 X19.73 Y-31.3
G1 X21.08 Y-28.91
G1 X22.06 Y-26.02
G1 X22.67 Y-22.69
G1 X22.89 Y-18.97
G1 X22.72 Y-14.93
G1 X22.16 Y-10.63
G1 X21.22 Y-6.15
G1 X19.91 Y-1.57
G1 X18.27 Y3.05
G1 X16.31 Y7.61
G1 X14.08 Y12.04
G1 X11.6 Y16.26
G1 X8.93 Y20.21
G1 X6.1 Y23.81
G1 X3.17 Y27.0
G1 X0.18 Y29.73
G1 X-2.81 Y31.95
G1 X-5.75 Y33.63
G1 X-8.59 Y34.73
G1 X-11.29 Y35.24
G1 X-13.79 Y35.14
G1 X-16.06 Y34.44
M5

; Ellipse 26/36 — rotation 125°
G0 X-19.0 Y32.91
M3
G1 X-20.87 Y31.45
G1 X-22.39 Y29.46
G1 X-23.52 Y26.96
G1 X-24.25 Y24.0
G1 X-24.56 Y20.63
G1 X-24.46 Y16.91
G1 X-23.93 Y12.89
G1 X-23.0 Y8.66
G1 X-21.67 Y4.28
G1 X-19.97 Y-0.18
G1 X-17.94 Y-4.63
G1 X-15.59 Y-9.0
G1 X-12.98 Y-13.22
G1 X-10.14 Y-17.21
G1 X-7.13 Y-20.91
G1 X-4.0 Y-24.25
G1 X-0.8 Y-27.17
G1 X2.41 Y-29.63
G1 X5.58 Y-31.59
G1 X8.66 Y-33.0
G1 X11.59 Y-33.85
G1 X14.32 Y-34.12
G1 X16.8 Y-33.8
G1 X19.0 Y-32.91
G1 X20.87 Y-31.45
G1 X22.39 Y-29.46
G1 X23.52 Y-26.96
G1 X24.25 Y-24.0
G1 X24.56 Y-20.63
G1 X24.46 Y-16.91
G1 X23.93 Y-12.89
G1 X23.0 Y-8.66
G1 X21.67 Y-4.28
G1 X19.97 Y0.18
G1 X17.94 Y4.63
G1 X15.59 Y9.0
G1 X12.98 Y13.22
G1 X10.14 Y17.21
G1 X7.13 Y20.91
G1 X4.0 Y24.25
G1 X0.8 Y27.17
G1 X-2.41 Y29.63
G1 X-5.58 Y31.59
G1 X-8.66 Y33.0
G1 X-11.59 Y33.85
G1 X-14.32 Y34.12
G1 X-16.8 Y33.8
G1 X-19.0 Y32.91
M5

; Ellipse 27/36 — rotation 130°
G0 X-21.8 Y31.13
M3
G1 X-23.53 Y29.51
G1 X-24.87 Y27.39
G1 X-25.78 Y24.81
G1 X-26.25 Y21.8
G1 X-26.27 Y18.41
G1 X-25.84 Y14.71
G1 X-24.97 Y10.76
G1 X-23.67 Y6.62
G1 X-21.96 Y2.37
G1 X-19.88 Y-1.92
G1 X-17.46 Y-6.17
G1 X-14.74 Y-10.32
G1 X-11.77 Y-14.3
G1 X-8.6 Y-18.03
G1 X-5.28 Y-21.45
G1 X-1.87 Y-24.51
G1 X1.57 Y-27.14
G1 X4.99 Y-29.31
G1 X8.32 Y-30.98
G1 X11.5 Y-32.12
G1 X14.49 Y-32.71
G1 X17.24 Y-32.74
G1 X19.68 Y-32.21
G1 X21.8 Y-31.13
G1 X23.53 Y-29.51
G1 X24.87 Y-27.39
G1 X25.78 Y-24.81
G1 X26.25 Y-21.8
G1 X26.27 Y-18.41
G1 X25.84 Y-14.71
G1 X24.97 Y-10.76
G1 X23.67 Y-6.62
G1 X21.96 Y-2.37
G1 X19.88 Y1.92
G1 X17.46 Y6.17
G1 X14.74 Y10.32
G1 X11.77 Y14.3
G1 X8.6 Y18.03
G1 X5.28 Y21.45
G1 X1.87 Y24.51
G1 X-1.57 Y27.14
G1 X-4.99 Y29.31
G1 X-8.32 Y30.98
G1 X-11.5 Y32.12
G1 X-14.49 Y32.71
G1 X-17.24 Y32.74
G1 X-19.68 Y32.21
G1 X-21.8 Y31.13
M5

; Ellipse 28/36 — rotation 135°
G0 X-24.43 Y29.11
M3
G1 X-26.02 Y27.35
G1 X-27.16 Y25.12
G1 X-27.84 Y22.47
G1 X-28.05 Y19.42
G1 X-27.77 Y16.05
G1 X-27.02 Y12.4
G1 X-25.81 Y8.54
G1 X-24.15 Y4.53
G1 X-22.09 Y0.45
G1 X-19.64 Y-3.64
G1 X-16.86 Y-7.67
G1 X-13.79 Y-11.57
G1 X-10.48 Y-15.27
G1 X-7.0 Y-18.71
G1 X-3.39 Y-21.83
G1 X0.27 Y-24.57
G1 X3.93 Y-26.9
G1 X7.52 Y-28.77
G1 X10.98 Y-30.14
G1 X14.26 Y-30.99
G1 X17.29 Y-31.32
G1 X20.02 Y-31.11
G1 X22.42 Y-30.37
G1 X24.43 Y-29.11
G1 X26.02 Y-27.35
G1 X27.16 Y-25.12
G1 X27.84 Y-22.47
G1 X28.05 Y-19.42
G1 X27.77 Y-16.05
G1 X27.02 Y-12.4
G1 X25.81 Y-8.54
G1 X24.15 Y-4.53
G1 X22.09 Y-0.45
G1 X19.64 Y3.64
G1 X16.86 Y7.67
G1 X13.79 Y11.57
G1 X10.48 Y15.27
G1 X7.0 Y18.71
G1 X3.39 Y21.83
G1 X-0.27 Y24.57
G1 X-3.93 Y26.9
G1 X-7.52 Y28.77
G1 X-10.98 Y30.14
G1 X-14.26 Y30.99
G1 X-17.29 Y31.32
G1 X-20.02 Y31.11
G1 X-22.42 Y30.37
G1 X-24.43 Y29.11
M5

; Ellipse 29/36 — rotation 140°
G0 X-26.87 Y26.87
M3
G1 X-28.3 Y24.98
G1 X-29.25 Y22.66
G1 X-29.7 Y19.95
G1 X-29.63 Y16.91
G1 X-29.07 Y13.57
G1 X-28.0 Y10.0
G1 X-26.46 Y6.26
G1 X-24.46 Y2.41
G1 X-22.04 Y-1.48
G1 X-19.25 Y-5.34
G1 X-16.13 Y-9.11
G1 X-12.73 Y-12.73
G1 X-9.11 Y-16.13
G1 X-5.34 Y-19.25
G1 X-1.48 Y-22.04
G1 X2.41 Y-24.46
G1 X6.26 Y-26.46
G1 X10.0 Y-28.0
G1 X13.57 Y-29.07
G1 X16.91 Y-29.63
G1 X19.95 Y-29.7
G1 X22.66 Y-29.25
G1 X24.98 Y-28.3
G1 X26.87 Y-26.87
G1 X28.3 Y-24.98
G1 X29.25 Y-22.66
G1 X29.7 Y-19.95
G1 X29.63 Y-16.91
G1 X29.07 Y-13.57
G1 X28.0 Y-10.0
G1 X26.46 Y-6.26
G1 X24.46 Y-2.41
G1 X22.04 Y1.48
G1 X19.25 Y5.34
G1 X16.13 Y9.11
G1 X12.73 Y12.73
G1 X9.11 Y16.13
G1 X5.34 Y19.25
G1 X1.48 Y22.04
G1 X-2.41 Y24.46
G1 X-6.26 Y26.46
G1 X-10.0 Y28.0
G1 X-13.57 Y29.07
G1 X-16.91 Y29.63
G1 X-19.95 Y29.7
G1 X-22.66 Y29.25
G1 X-24.98 Y28.3
G1 X-26.87 Y26.87
M5

; Ellipse 30/36 — rotation 145°
G0 X-29.11 Y24.43
M3
G1 X-30.37 Y22.42
G1 X-31.11 Y20.02
G1 X-31.32 Y17.29
G1 X-30.99 Y14.26
G1 X-30.14 Y10.98
G1 X-28.77 Y7.52
G1 X-26.9 Y3.93
G1 X-24.57 Y0.27
G1 X-21.83 Y-3.39
G1 X-18.71 Y-7.0
G1 X-15.27 Y-10.48
G1 X-11.57 Y-13.79
G1 X-7.67 Y-16.86
G1 X-3.64 Y-19.64
G1 X0.45 Y-22.09
G1 X4.53 Y-24.15
G1 X8.54 Y-25.81
G1 X12.4 Y-27.02
G1 X16.05 Y-27.77
G1 X19.42 Y-28.05
G1 X22.47 Y-27.84
G1 X25.12 Y-27.16
G1 X27.35 Y-26.02
G1 X29.11 Y-24.43
G1 X30.37 Y-22.42
G1 X31.11 Y-20.02
G1 X31.32 Y-17.29
G1 X30.99 Y-14.26
G1 X30.14 Y-10.98
G1 X28.77 Y-7.52
G1 X26.9 Y-3.93
G1 X24.57 Y-0.27
G1 X21.83 Y3.39
G1 X18.71 Y7.0
G1 X15.27 Y10.48
G1 X11.57 Y13.79
G1 X7.67 Y16.86
G1 X3.64 Y19.64
G1 X-0.45 Y22.09
G1 X-4.53 Y24.15
G1 X-8.54 Y25.81
G1 X-12.4 Y27.02
G1 X-16.05 Y27.77
G1 X-19.42 Y28.05
G1 X-22.47 Y27.84
G1 X-25.12 Y27.16
G1 X-27.35 Y26.02
G1 X-29.11 Y24.43
M5

; Ellipse 31/36 — rotation 150°
G0 X-31.13 Y21.8
M3
G1 X-32.21 Y19.68
G1 X-32.74 Y17.24
G1 X-32.71 Y14.49
G1 X-32.12 Y11.5
G1 X-30.98 Y8.32
G1 X-29.31 Y4.99
G1 X-27.14 Y1.57
G1 X-24.51 Y-1.87
G1 X-21.45 Y-5.28
G1 X-18.03 Y-8.6
G1 X-14.3 Y-11.77
G1 X-10.32 Y-14.74
G1 X-6.17 Y-17.46
G1 X-1.92 Y-19.88
G1 X2.37 Y-21.96
G1 X6.62 Y-23.67
G1 X10.76 Y-24.97
G1 X14.71 Y-25.84
G1 X18.41 Y-26.27
G1 X21.8 Y-26.25
G1 X24.81 Y-25.78
G1 X27.39 Y-24.87
G1 X29.51 Y-23.53
G1 X31.13 Y-21.8
G1 X32.21 Y-19.68
G1 X32.74 Y-17.24
G1 X32.71 Y-14.49
G1 X32.12 Y-11.5
G1 X30.98 Y-8.32
G1 X29.31 Y-4.99
G1 X27.14 Y-1.57
G1 X24.51 Y1.87
G1 X21.45 Y5.28
G1 X18.03 Y8.6
G1 X14.3 Y11.77
G1 X10.32 Y14.74
G1 X6.17 Y17.46
G1 X1.92 Y19.88
G1 X-2.37 Y21.96
G1 X-6.62 Y23.67
G1 X-10.76 Y24.97
G1 X-14.71 Y25.84
G1 X-18.41 Y26.27
G1 X-21.8 Y26.25
G1 X-24.81 Y25.78
G1 X-27.39 Y24.87
G1 X-29.51 Y23.53
G1 X-31.13 Y21.8
M5

; Ellipse 32/36 — rotation 155°
G0 X-32.91 Y19.0
M3
G1 X-33.8 Y16.8
G1 X-34.12 Y14.32
G1 X-33.85 Y11.59
G1 X-33.0 Y8.66
G1 X-31.59 Y5.58
G1 X-29.63 Y2.41
G1 X-27.17 Y-0.8
G1 X-24.25 Y-4.0
G1 X-20.91 Y-7.13
G1 X-17.21 Y-10.14
G1 X-13.22 Y-12.98
G1 X-9.0 Y-15.59
G1 X-4.63 Y-17.94
G1 X-0.18 Y-19.97
G1 X4.28 Y-21.67
G1 X8.66 Y-23.0
G1 X12.89 Y-23.93
G1 X16.91 Y-24.46
G1 X20.63 Y-24.56
G1 X24.0 Y-24.25
G1 X26.96 Y-23.52
G1 X29.46 Y-22.39
G1 X31.45 Y-20.87
G1 X32.91 Y-19.0
G1 X33.8 Y-16.8
G1 X34.12 Y-14.32
G1 X33.85 Y-11.59
G1 X33.0 Y-8.66
G1 X31.59 Y-5.58
G1 X29.63 Y-2.41
G1 X27.17 Y0.8
G1 X24.25 Y4.0
G1 X20.91 Y7.13
G1 X17.21 Y10.14
G1 X13.22 Y12.98
G1 X9.0 Y15.59
G1 X4.63 Y17.94
G1 X0.18 Y19.97
G1 X-4.28 Y21.67
G1 X-8.66 Y23.0
G1 X-12.89 Y23.93
G1 X-16.91 Y24.46
G1 X-20.63 Y24.56
G1 X-24.0 Y24.25
G1 X-26.96 Y23.52
G1 X-29.46 Y22.39
G1 X-31.45 Y20.87
G1 X-32.91 Y19.0
M5

; Ellipse 33/36 — rotation 160°
G0 X-34.44 Y16.06
M3
G1 X-35.14 Y13.79
G1 X-35.24 Y11.29
G1 X-34.73 Y8.59
G1 X-33.63 Y5.75
G1 X-31.95 Y2.81
G1 X-29.73 Y-0.18
G1 X-27.0 Y-3.17
G1 X-23.81 Y-6.1
G1 X-20.21 Y-8.93
G1 X-16.26 Y-11.6
G1 X-12.04 Y-14.08
G1 X-7.61 Y-16.31
G1 X-3.05 Y-18.27
G1 X1.57 Y-19.91
G1 X6.15 Y-21.22
G1 X10.63 Y-22.16
G1 X14.93 Y-22.72
G1 X18.97 Y-22.89
G1 X22.69 Y-22.67
G1 X26.02 Y-22.06
G1 X28.91 Y-21.08
G1 X31.3 Y-19.73
G1 X33.15 Y-18.05
G1 X34.44 Y-16.06
G1 X35.14 Y-13.79
G1 X35.24 Y-11.29
G1 X34.73 Y-8.59
G1 X33.63 Y-5.75
G1 X31.95 Y-2.81
G1 X29.73 Y0.18
G1 X27.0 Y3.17
G1 X23.81 Y6.1
G1 X20.21 Y8.93
G1 X16.26 Y11.6
G1 X12.04 Y14.08
G1 X7.61 Y16.31
G1 X3.05 Y18.27
G1 X-1.57 Y19.91
G1 X-6.15 Y21.22
G1 X-10.63 Y22.16
G1 X-14.93 Y22.72
G1 X-18.97 Y22.89
G1 X-22.69 Y22.67
G1 X-26.02 Y22.06
G1 X-28.91 Y21.08
G1 X-31.3 Y19.73
G1 X-33.15 Y18.05
G1 X-34.44 Y16.06
M5

; Ellipse 34/36 — rotation 165°
G0 X-35.71 Y13.0
M3
G1 X-36.21 Y10.68
G1 X-36.08 Y8.18
G1 X-35.35 Y5.53
G1 X-34.0 Y2.8
G1 X-32.08 Y0.01
G1 X-29.6 Y-2.77
G1 X-26.62 Y-5.51
G1 X-23.19 Y-8.15
G1 X-19.35 Y-10.65
G1 X-15.19 Y-12.97
G1 X-10.76 Y-15.07
G1 X-6.16 Y-16.91
G1 X-1.44 Y-18.47
G1 X3.3 Y-19.7
G1 X7.98 Y-20.6
G1 X12.52 Y-21.15
G1 X16.85 Y-21.33
G1 X20.9 Y-21.15
G1 X24.58 Y-20.61
G1 X27.85 Y-19.71
G1 X30.63 Y-18.48
G1 X32.9 Y-16.93
G1 X34.6 Y-15.09
G1 X35.71 Y-13.0
G1 X36.21 Y-10.68
G1 X36.08 Y-8.18
G1 X35.35 Y-5.53
G1 X34.0 Y-2.8
G1 X32.08 Y-0.01
G1 X29.6 Y2.77
G1 X26.62 Y5.51
G1 X23.19 Y8.15
G1 X19.35 Y10.65
G1 X15.19 Y12.97
G1 X10.76 Y15.07
G1 X6.16 Y16.91
G1 X1.44 Y18.47
G1 X-3.3 Y19.7
G1 X-7.98 Y20.6
G1 X-12.52 Y21.15
G1 X-16.85 Y21.33
G1 X-20.9 Y21.15
G1 X-24.58 Y20.61
G1 X-27.85 Y19.71
G1 X-30.63 Y18.48
G1 X-32.9 Y16.93
G1 X-34.6 Y15.09
G1 X-35.71 Y13.0
M5

; Ellipse 35/36 — rotation 170°
G0 X-36.71 Y9.84
M3
G1 X-37.0 Y7.48
G1 X-36.66 Y5.0
G1 X-35.69 Y2.43
G1 X-34.12 Y-0.18
G1 X-31.96 Y-2.78
G1 X-29.25 Y-5.34
G1 X-26.04 Y-7.81
G1 X-22.39 Y-10.14
G1 X-18.35 Y-12.3
G1 X-14.0 Y-14.25
G1 X-9.41 Y-15.95
G1 X-4.66 Y-17.39
G1 X0.17 Y-18.52
G1 X5.0 Y-19.34
G1 X9.74 Y-19.83
G1 X14.32 Y-19.97
G1 X18.65 Y-19.78
G1 X22.66 Y-19.25
G1 X26.28 Y-18.39
G1 X29.46 Y-17.21
G1 X32.13 Y-15.74
G1 X34.25 Y-14.0
G1 X35.78 Y-12.02
G1 X36.71 Y-9.84
G1 X37.0 Y-7.48
G1 X36.66 Y-5.0
G1 X35.69 Y-2.43
G1 X34.12 Y0.18
G1 X31.96 Y2.78
G1 X29.25 Y5.34
G1 X26.04 Y7.81
G1 X22.39 Y10.14
G1 X18.35 Y12.3
G1 X14.0 Y14.25
G1 X9.41 Y15.95
G1 X4.66 Y17.39
G1 X-0.17 Y18.52
G1 X-5.0 Y19.34
G1 X-9.74 Y19.83
G1 X-14.32 Y19.97
G1 X-18.65 Y19.78
G1 X-22.66 Y19.25
G1 X-26.28 Y18.39
G1 X-29.46 Y17.21
G1 X-32.13 Y15.74
G1 X-34.25 Y14.0
G1 X-35.78 Y12.02
G1 X-36.71 Y9.84
M5

; Ellipse 36/36 — rotation 175°
G0 X-37.42 Y6.6
M3
G1 X-37.51 Y4.23
G1 X-36.96 Y1.79
G1 X-35.77 Y-0.69
G1 X-33.97 Y-3.15
G1 X-31.59 Y-5.56
G1 X-28.67 Y-7.87
G1 X-25.26 Y-10.05
G1 X-21.42 Y-12.05
G1 X-17.21 Y-13.85
G1 X-12.7 Y-15.41
G1 X-7.98 Y-16.71
G1 X-3.13 Y-17.73
G1 X1.79 Y-18.44
G1 X6.67 Y-18.83
G1 X11.43 Y-18.9
G1 X16.0 Y-18.65
G1 X20.3 Y-18.08
G1 X24.25 Y-17.2
G1 X27.79 Y-16.03
G1 X30.85 Y-14.58
G1 X33.38 Y-12.88
G1 X35.34 Y-10.96
G1 X36.69 Y-8.86
G1 X37.42 Y-6.6
G1 X37.51 Y-4.23
G1 X36.96 Y-1.79
G1 X35.77 Y0.69
G1 X33.97 Y3.15
G1 X31.59 Y5.56
G1 X28.67 Y7.87
G1 X25.26 Y10.05
G1 X21.42 Y12.05
G1 X17.21 Y13.85
G1 X12.7 Y15.41
G1 X7.98 Y16.71
G1 X3.13 Y17.73
G1 X-1.79 Y18.44
G1 X-6.67 Y18.83
G1 X-11.43 Y18.9
G1 X-16.0 Y18.65
G1 X-20.3 Y18.08
G1 X-24.25 Y17.2
G1 X-27.79 Y16.03
G1 X-30.85 Y14.58
G1 X-33.38 Y12.88
G1 X-35.34 Y10.96
G1 X-36.69 Y8.86
G1 X-37.42 Y6.6
M5

M5
G0 X0 Y0
