; Spirograph variant — 30 ellipses with varying size
; Creates a flower-like pattern with petal depth variation
G28
GOHOME
M5

; Ellipse 1 rot=0° ry=12.0mm
G0 X39.85 Y-3.49
M3
G1 X39.64 Y-1.9
G1 X38.76 Y-0.27
G1 X37.21 Y1.35
G1 X35.03 Y2.96
G1 X32.25 Y4.51
G1 X28.92 Y5.99
G1 X25.09 Y7.36
G1 X20.83 Y8.61
G1 X16.22 Y9.71
G1 X11.32 Y10.64
G1 X6.24 Y11.4
G1 X1.05 Y11.95
G1 X-4.16 Y12.31
G1 X-9.3 Y12.45
G1 X-14.28 Y12.38
G1 X-19.02 Y12.1
G1 X-23.43 Y11.61
G1 X-27.44 Y10.92
G1 X-30.98 Y10.04
G1 X-33.99 Y9.0
G1 X-36.41 Y7.8
G1 X-38.22 Y6.46
G1 X-39.37 Y5.02
G1 X-39.85 Y3.49
G1 X-39.64 Y1.9
G1 X-38.76 Y0.27
G1 X-37.21 Y-1.35
G1 X-35.03 Y-2.96
G1 X-32.25 Y-4.51
G1 X-28.92 Y-5.99
G1 X-25.09 Y-7.36
G1 X-20.83 Y-8.61
G1 X-16.22 Y-9.71
G1 X-11.32 Y-10.64
G1 X-6.24 Y-11.4
G1 X-1.05 Y-11.95
G1 X4.16 Y-12.31
G1 X9.3 Y-12.45
G1 X14.28 Y-12.38
G1 X19.02 Y-12.1
G1 X23.43 Y-11.61
G1 X27.44 Y-10.92
G1 X30.98 Y-10.04
G1 X33.99 Y-9.0
G1 X36.41 Y-7.8
G1 X38.22 Y-6.46
G1 X39.37 Y-5.02
G1 X39.85 Y-3.49
M5

; Ellipse 2 rot=6° ry=14.1mm
G0 X39.99 Y0.7
M3
G1 X39.62 Y2.53
G1 X38.57 Y4.32
G1 X36.86 Y6.03
G1 X34.51 Y7.64
G1 X31.58 Y9.12
G1 X28.11 Y10.45
G1 X24.15 Y11.59
G1 X19.78 Y12.54
G1 X15.08 Y13.27
G1 X10.11 Y13.78
G1 X4.98 Y14.05
G1 X-0.25 Y14.08
G1 X-5.46 Y13.87
G1 X-10.59 Y13.42
G1 X-15.53 Y12.74
G1 X-20.21 Y11.84
G1 X-24.54 Y10.74
G1 X-28.45 Y9.46
G1 X-31.88 Y8.02
G1 X-34.76 Y6.43
G1 X-37.04 Y4.74
G1 X-38.69 Y2.97
G1 X-39.68 Y1.15
G1 X-39.99 Y-0.7
G1 X-39.62 Y-2.53
G1 X-38.57 Y-4.32
G1 X-36.86 Y-6.03
G1 X-34.51 Y-7.64
G1 X-31.58 Y-9.12
G1 X-28.11 Y-10.45
G1 X-24.15 Y-11.59
G1 X-19.78 Y-12.54
G1 X-15.08 Y-13.27
G1 X-10.11 Y-13.78
G1 X-4.98 Y-14.05
G1 X0.25 Y-14.08
G1 X5.46 Y-13.87
G1 X10.59 Y-13.42
G1 X15.53 Y-12.74
G1 X20.21 Y-11.84
G1 X24.54 Y-10.74
G1 X28.45 Y-9.46
G1 X31.88 Y-8.02
G1 X34.76 Y-6.43
G1 X37.04 Y-4.74
G1 X38.69 Y-2.97
G1 X39.68 Y-1.15
G1 X39.99 Y0.7
M5

; Ellipse 3 rot=12° ry=16.1mm
G0 X39.7 Y4.87
M3
G1 X39.11 Y6.91
G1 X37.84 Y8.84
G1 X35.93 Y10.61
G1 X33.4 Y12.2
G1 X30.31 Y13.58
G1 X26.69 Y14.72
G1 X22.62 Y15.62
G1 X18.16 Y16.25
G1 X13.38 Y16.6
G1 X8.38 Y16.67
G1 X3.24 Y16.45
G1 X-1.96 Y15.95
G1 X-7.12 Y15.17
G1 X-12.17 Y14.14
G1 X-17.0 Y12.87
G1 X-21.55 Y11.37
G1 X-25.72 Y9.68
G1 X-29.46 Y7.83
G1 X-32.69 Y5.84
G1 X-35.36 Y3.75
G1 X-37.43 Y1.6
G1 X-38.86 Y-0.58
G1 X-39.62 Y-2.75
G1 X-39.7 Y-4.87
G1 X-39.11 Y-6.91
G1 X-37.84 Y-8.84
G1 X-35.93 Y-10.61
G1 X-33.4 Y-12.2
G1 X-30.31 Y-13.58
G1 X-26.69 Y-14.72
G1 X-22.62 Y-15.62
G1 X-18.16 Y-16.25
G1 X-13.38 Y-16.6
G1 X-8.38 Y-16.67
G1 X-3.24 Y-16.45
G1 X1.96 Y-15.95
G1 X7.12 Y-15.17
G1 X12.17 Y-14.14
G1 X17.0 Y-12.87
G1 X21.55 Y-11.37
G1 X25.72 Y-9.68
G1 X29.46 Y-7.83
G1 X32.69 Y-5.84
G1 X35.36 Y-3.75
G1 X37.43 Y-1.6
G1 X38.86 Y0.58
G1 X39.62 Y2.75
G1 X39.7 Y4.87
M5

; Ellipse 4 rot=18° ry=17.9mm
G0 X38.97 Y9.0
M3
G1 X38.12 Y11.19
G1 X36.61 Y13.2
G1 X34.47 Y14.98
G1 X31.74 Y16.5
G1 X28.47 Y17.74
G1 X24.72 Y18.68
G1 X20.54 Y19.3
G1 X16.0 Y19.58
G1 X11.2 Y19.54
G1 X6.2 Y19.15
G1 X1.1 Y18.45
G1 X-4.02 Y17.42
G1 X-9.07 Y16.1
G1 X-13.97 Y14.5
G1 X-18.63 Y12.65
G1 X-22.97 Y10.59
G1 X-26.92 Y8.34
G1 X-30.4 Y5.95
G1 X-33.37 Y3.47
G1 X-35.76 Y0.92
G1 X-37.55 Y-1.65
G1 X-38.69 Y-4.18
G1 X-39.17 Y-6.65
G1 X-38.97 Y-9.0
G1 X-38.12 Y-11.19
G1 X-36.61 Y-13.2
G1 X-34.47 Y-14.98
G1 X-31.74 Y-16.5
G1 X-28.47 Y-17.74
G1 X-24.72 Y-18.68
G1 X-20.54 Y-19.3
G1 X-16.0 Y-19.58
G1 X-11.2 Y-19.54
G1 X-6.2 Y-19.15
G1 X-1.1 Y-18.45
G1 X4.02 Y-17.42
G1 X9.07 Y-16.1
G1 X13.97 Y-14.5
G1 X18.63 Y-12.65
G1 X22.97 Y-10.59
G1 X26.92 Y-8.34
G1 X30.4 Y-5.95
G1 X33.37 Y-3.47
G1 X35.76 Y-0.92
G1 X37.55 Y1.65
G1 X38.69 Y4.18
G1 X39.17 Y6.65
G1 X38.97 Y9.0
M5

; Ellipse 5 rot=24° ry=19.4mm
G0 X37.82 Y13.02
M3
G1 X36.67 Y15.31
G1 X34.89 Y17.33
G1 X32.52 Y19.06
G1 X29.59 Y20.46
G1 X26.15 Y21.52
G1 X22.27 Y22.2
G1 X18.0 Y22.5
G1 X13.43 Y22.42
G1 X8.63 Y21.96
G1 X3.68 Y21.12
G1 X-1.34 Y19.92
G1 X-6.33 Y18.37
G1 X-11.21 Y16.52
G1 X-15.9 Y14.38
G1 X-20.32 Y11.99
G1 X-24.39 Y9.4
G1 X-28.04 Y6.65
G1 X-31.22 Y3.78
G1 X-33.86 Y0.85
G1 X-35.92 Y-2.09
G1 X-37.36 Y-5.0
G1 X-38.17 Y-7.82
G1 X-38.32 Y-10.51
G1 X-37.82 Y-13.02
G1 X-36.67 Y-15.31
G1 X-34.89 Y-17.33
G1 X-32.52 Y-19.06
G1 X-29.59 Y-20.46
G1 X-26.15 Y-21.52
G1 X-22.27 Y-22.2
G1 X-18.0 Y-22.5
G1 X-13.43 Y-22.42
G1 X-8.63 Y-21.96
G1 X-3.68 Y-21.12
G1 X1.34 Y-19.92
G1 X6.33 Y-18.37
G1 X11.21 Y-16.52
G1 X15.9 Y-14.38
G1 X20.32 Y-11.99
G1 X24.39 Y-9.4
G1 X28.04 Y-6.65
G1 X31.22 Y-3.78
G1 X33.86 Y-0.85
G1 X35.92 Y2.09
G1 X37.36 Y5.0
G1 X38.17 Y7.82
G1 X38.32 Y10.51
G1 X37.82 Y13.02
M5

; Ellipse 6 rot=30° ry=20.7mm
G0 X36.25 Y16.9
M3
G1 X34.8 Y19.2
G1 X32.76 Y21.17
G1 X30.15 Y22.78
G1 X27.03 Y24.0
G1 X23.45 Y24.81
G1 X19.46 Y25.19
G1 X15.14 Y25.15
G1 X10.56 Y24.67
G1 X5.81 Y23.77
G1 X0.95 Y22.46
G1 X-3.92 Y20.77
G1 X-8.73 Y18.72
G1 X-13.39 Y16.36
G1 X-17.82 Y13.71
G1 X-21.94 Y10.83
G1 X-25.69 Y7.76
G1 X-29.0 Y4.56
G1 X-31.81 Y1.29
G1 X-34.08 Y-2.01
G1 X-35.76 Y-5.28
G1 X-36.83 Y-8.45
G1 X-37.28 Y-11.48
G1 X-37.08 Y-14.32
G1 X-36.25 Y-16.9
G1 X-34.8 Y-19.2
G1 X-32.76 Y-21.17
G1 X-30.15 Y-22.78
G1 X-27.03 Y-24.0
G1 X-23.45 Y-24.81
G1 X-19.46 Y-25.19
G1 X-15.14 Y-25.15
G1 X-10.56 Y-24.67
G1 X-5.81 Y-23.77
G1 X-0.95 Y-22.46
G1 X3.92 Y-20.77
G1 X8.73 Y-18.72
G1 X13.39 Y-16.36
G1 X17.82 Y-13.71
G1 X21.94 Y-10.83
G1 X25.69 Y-7.76
G1 X29.0 Y-4.56
G1 X31.81 Y-1.29
G1 X34.08 Y2.01
G1 X35.76 Y5.28
G1 X36.83 Y8.45
G1 X37.28 Y11.48
G1 X37.08 Y14.32
G1 X36.25 Y16.9
M5

; Ellipse 7 rot=36° ry=21.5mm
G0 X34.29 Y20.6
M3
G1 X32.55 Y22.83
G1 X30.25 Y24.67
G1 X27.44 Y26.09
G1 X24.15 Y27.06
G1 X20.46 Y27.57
G1 X16.41 Y27.61
G1 X12.08 Y27.17
G1 X7.55 Y26.27
G1 X2.89 Y24.92
G1 X-1.83 Y23.14
G1 X-6.51 Y20.97
G1 X-11.08 Y18.44
G1 X-15.46 Y15.59
G1 X-19.58 Y12.48
G1 X-23.36 Y9.15
G1 X-26.74 Y5.67
G1 X-29.66 Y2.09
G1 X-32.08 Y-1.53
G1 X-33.95 Y-5.12
G1 X-35.23 Y-8.62
G1 X-35.92 Y-11.98
G1 X-35.99 Y-15.13
G1 X-35.44 Y-18.02
G1 X-34.29 Y-20.6
G1 X-32.55 Y-22.83
G1 X-30.25 Y-24.67
G1 X-27.44 Y-26.09
G1 X-24.15 Y-27.06
G1 X-20.46 Y-27.57
G1 X-16.41 Y-27.61
G1 X-12.08 Y-27.17
G1 X-7.55 Y-26.27
G1 X-2.89 Y-24.92
G1 X1.83 Y-23.14
G1 X6.51 Y-20.97
G1 X11.08 Y-18.44
G1 X15.46 Y-15.59
G1 X19.58 Y-12.48
G1 X23.36 Y-9.15
G1 X26.74 Y-5.67
G1 X29.66 Y-2.09
G1 X32.08 Y1.53
G1 X33.95 Y5.12
G1 X35.23 Y8.62
G1 X35.92 Y11.98
G1 X35.99 Y15.13
G1 X35.44 Y18.02
G1 X34.29 Y20.6
M5

; Ellipse 8 rot=42° ry=21.9mm
G0 X31.95 Y24.07
M3
G1 X29.95 Y26.15
G1 X27.44 Y27.79
G1 X24.46 Y28.95
G1 X21.06 Y29.61
G1 X17.3 Y29.77
G1 X13.25 Y29.41
G1 X8.97 Y28.56
G1 X4.54 Y27.21
G1 X0.02 Y25.4
G1 X-4.49 Y23.16
G1 X-8.92 Y20.52
G1 X-13.21 Y17.53
G1 X-17.26 Y14.23
G1 X-21.03 Y10.7
G1 X-24.43 Y6.98
G1 X-27.41 Y3.14
G1 X-29.92 Y-0.75
G1 X-31.93 Y-4.63
G1 X-33.38 Y-8.43
G1 X-34.27 Y-12.08
G1 X-34.57 Y-15.53
G1 X-34.28 Y-18.72
G1 X-33.4 Y-21.58
G1 X-31.95 Y-24.07
G1 X-29.95 Y-26.15
G1 X-27.44 Y-27.79
G1 X-24.46 Y-28.95
G1 X-21.06 Y-29.61
G1 X-17.3 Y-29.77
G1 X-13.25 Y-29.41
G1 X-8.97 Y-28.56
G1 X-4.54 Y-27.21
G1 X-0.02 Y-25.4
G1 X4.49 Y-23.16
G1 X8.92 Y-20.52
G1 X13.21 Y-17.53
G1 X17.26 Y-14.23
G1 X21.03 Y-10.7
G1 X24.43 Y-6.98
G1 X27.41 Y-3.14
G1 X29.92 Y0.75
G1 X31.93 Y4.63
G1 X33.38 Y8.43
G1 X34.27 Y12.08
G1 X34.57 Y15.53
G1 X34.28 Y18.72
G1 X33.4 Y21.58
G1 X31.95 Y24.07
M5

; Ellipse 9 rot=48° ry=21.9mm
G0 X29.25 Y27.28
M3
G1 X27.05 Y29.14
G1 X24.38 Y30.5
G1 X21.3 Y31.35
G1 X17.85 Y31.65
G1 X14.1 Y31.41
G1 X10.1 Y30.64
G1 X5.93 Y29.34
G1 X1.67 Y27.54
G1 X-2.63 Y25.27
G1 X-6.89 Y22.56
G1 X-11.02 Y19.47
G1 X-14.97 Y16.05
G1 X-18.66 Y12.35
G1 X-22.03 Y8.44
G1 X-25.02 Y4.39
G1 X-27.59 Y0.26
G1 X-29.68 Y-3.87
G1 X-31.27 Y-7.94
G1 X-32.32 Y-11.87
G1 X-32.82 Y-15.6
G1 X-32.75 Y-19.06
G1 X-32.13 Y-22.2
G1 X-30.96 Y-24.95
G1 X-29.25 Y-27.28
G1 X-27.05 Y-29.14
G1 X-24.38 Y-30.5
G1 X-21.3 Y-31.35
G1 X-17.85 Y-31.65
G1 X-14.1 Y-31.41
G1 X-10.1 Y-30.64
G1 X-5.93 Y-29.34
G1 X-1.67 Y-27.54
G1 X2.63 Y-25.27
G1 X6.89 Y-22.56
G1 X11.02 Y-19.47
G1 X14.97 Y-16.05
G1 X18.66 Y-12.35
G1 X22.03 Y-8.44
G1 X25.02 Y-4.39
G1 X27.59 Y-0.26
G1 X29.68 Y3.87
G1 X31.27 Y7.94
G1 X32.32 Y11.87
G1 X32.82 Y15.6
G1 X32.75 Y19.06
G1 X32.13 Y22.2
G1 X30.96 Y24.95
G1 X29.25 Y27.28
M5

; Ellipse 10 rot=54° ry=21.5mm
G0 X26.24 Y30.19
M3
G1 X23.9 Y31.77
G1 X21.15 Y32.81
G1 X18.03 Y33.29
G1 X14.61 Y33.2
G1 X10.94 Y32.54
G1 X7.08 Y31.33
G1 X3.1 Y29.57
G1 X-0.94 Y27.32
G1 X-4.96 Y24.59
G1 X-8.89 Y21.44
G1 X-12.67 Y17.93
G1 X-16.23 Y14.11
G1 X-19.52 Y10.05
G1 X-22.47 Y5.82
G1 X-25.04 Y1.49
G1 X-27.18 Y-2.87
G1 X-28.85 Y-7.18
G1 X-30.04 Y-11.37
G1 X-30.7 Y-15.36
G1 X-30.84 Y-19.09
G1 X-30.46 Y-22.49
G1 X-29.55 Y-25.51
G1 X-28.14 Y-28.09
G1 X-26.24 Y-30.19
G1 X-23.9 Y-31.77
G1 X-21.15 Y-32.81
G1 X-18.03 Y-33.29
G1 X-14.61 Y-33.2
G1 X-10.94 Y-32.54
G1 X-7.08 Y-31.33
G1 X-3.1 Y-29.57
G1 X0.94 Y-27.32
G1 X4.96 Y-24.59
G1 X8.89 Y-21.44
G1 X12.67 Y-17.93
G1 X16.23 Y-14.11
G1 X19.52 Y-10.05
G1 X22.47 Y-5.82
G1 X25.04 Y-1.49
G1 X27.18 Y2.87
G1 X28.85 Y7.18
G1 X30.04 Y11.37
G1 X30.7 Y15.36
G1 X30.84 Y19.09
G1 X30.46 Y22.49
G1 X29.55 Y25.51
G1 X28.14 Y28.09
G1 X26.24 Y30.19
M5

; Ellipse 11 rot=60° ry=20.7mm
G0 X22.94 Y32.77
M3
G1 X20.54 Y34.03
G1 X17.78 Y34.72
G1 X14.72 Y34.81
G1 X11.41 Y34.3
G1 X7.9 Y33.21
G1 X4.26 Y31.55
G1 X0.54 Y29.35
G1 X-3.18 Y26.65
G1 X-6.86 Y23.49
G1 X-10.41 Y19.93
G1 X-13.78 Y16.03
G1 X-16.92 Y11.85
G1 X-19.77 Y7.47
G1 X-22.29 Y2.97
G1 X-24.42 Y-1.59
G1 X-26.13 Y-6.12
G1 X-27.39 Y-10.55
G1 X-28.19 Y-14.79
G1 X-28.5 Y-18.78
G1 X-28.33 Y-22.45
G1 X-27.67 Y-25.74
G1 X-26.54 Y-28.58
G1 X-24.96 Y-30.94
G1 X-22.94 Y-32.77
G1 X-20.54 Y-34.03
G1 X-17.78 Y-34.72
G1 X-14.72 Y-34.81
G1 X-11.41 Y-34.3
G1 X-7.9 Y-33.21
G1 X-4.26 Y-31.55
G1 X-0.54 Y-29.35
G1 X3.18 Y-26.65
G1 X6.86 Y-23.49
G1 X10.41 Y-19.93
G1 X13.78 Y-16.03
G1 X16.92 Y-11.85
G1 X19.77 Y-7.47
G1 X22.29 Y-2.97
G1 X24.42 Y1.59
G1 X26.13 Y6.12
G1 X27.39 Y10.55
G1 X28.19 Y14.79
G1 X28.5 Y18.78
G1 X28.33 Y22.45
G1 X27.67 Y25.74
G1 X26.54 Y28.58
G1 X24.96 Y30.94
G1 X22.94 Y32.77
M5

; Ellipse 12 rot=66° ry=19.4mm
G0 X19.39 Y34.98
M3
G1 X17.01 Y35.92
G1 X14.33 Y36.23
G1 X11.41 Y35.93
G1 X8.3 Y35.01
G1 X5.04 Y33.49
G1 X1.7 Y31.4
G1 X-1.68 Y28.77
G1 X-5.02 Y25.65
G1 X-8.28 Y22.09
G1 X-11.4 Y18.15
G1 X-14.32 Y13.91
G1 X-17.0 Y9.42
G1 X-19.38 Y4.77
G1 X-21.44 Y0.04
G1 X-23.12 Y-4.68
G1 X-24.41 Y-9.33
G1 X-25.29 Y-13.82
G1 X-25.73 Y-18.08
G1 X-25.73 Y-22.02
G1 X-25.29 Y-25.59
G1 X-24.42 Y-28.72
G1 X-23.13 Y-31.35
G1 X-21.44 Y-33.46
G1 X-19.39 Y-34.98
G1 X-17.01 Y-35.92
G1 X-14.33 Y-36.23
G1 X-11.41 Y-35.93
G1 X-8.3 Y-35.01
G1 X-5.04 Y-33.49
G1 X-1.7 Y-31.4
G1 X1.68 Y-28.77
G1 X5.02 Y-25.65
G1 X8.28 Y-22.09
G1 X11.4 Y-18.15
G1 X14.32 Y-13.91
G1 X17.0 Y-9.42
G1 X19.38 Y-4.77
G1 X21.44 Y-0.04
G1 X23.12 Y4.68
G1 X24.41 Y9.33
G1 X25.29 Y13.82
G1 X25.73 Y18.08
G1 X25.73 Y22.02
G1 X25.29 Y25.59
G1 X24.42 Y28.72
G1 X23.13 Y31.35
G1 X21.44 Y33.46
G1 X19.39 Y34.98
M5

; Ellipse 13 rot=72° ry=17.9mm
G0 X15.63 Y36.82
M3
G1 X13.35 Y37.42
G1 X10.84 Y37.37
G1 X8.14 Y36.69
G1 X5.31 Y35.38
G1 X2.38 Y33.46
G1 X-0.59 Y30.98
G1 X-3.54 Y27.96
G1 X-6.44 Y24.46
G1 X-9.22 Y20.54
G1 X-11.85 Y16.28
G1 X-14.28 Y11.73
G1 X-16.46 Y6.99
G1 X-18.36 Y2.12
G1 X-19.94 Y-2.78
G1 X-21.19 Y-7.64
G1 X-22.07 Y-12.36
G1 X-22.57 Y-16.87
G1 X-22.69 Y-21.1
G1 X-22.42 Y-24.96
G1 X-21.76 Y-28.39
G1 X-20.74 Y-31.34
G1 X-19.36 Y-33.76
G1 X-17.64 Y-35.59
G1 X-15.63 Y-36.82
G1 X-13.35 Y-37.42
G1 X-10.84 Y-37.37
G1 X-8.14 Y-36.69
G1 X-5.31 Y-35.38
G1 X-2.38 Y-33.46
G1 X0.59 Y-30.98
G1 X3.54 Y-27.96
G1 X6.44 Y-24.46
G1 X9.22 Y-20.54
G1 X11.85 Y-16.28
G1 X14.28 Y-11.73
G1 X16.46 Y-6.99
G1 X18.36 Y-2.12
G1 X19.94 Y2.78
G1 X21.19 Y7.64
G1 X22.07 Y12.36
G1 X22.57 Y16.87
G1 X22.69 Y21.1
G1 X22.42 Y24.96
G1 X21.76 Y28.39
G1 X20.74 Y31.34
G1 X19.36 Y33.76
G1 X17.64 Y35.59
G1 X15.63 Y36.82
M5

; Ellipse 14 rot=78° ry=16.1mm
G0 X11.69 Y38.25
M3
G1 X9.59 Y38.54
G1 X7.32 Y38.16
G1 X4.92 Y37.14
G1 X2.45 Y35.48
G1 X-0.08 Y33.21
G1 X-2.6 Y30.37
G1 X-5.07 Y27.01
G1 X-7.46 Y23.19
G1 X-9.72 Y18.98
G1 X-11.81 Y14.44
G1 X-13.71 Y9.65
G1 X-15.37 Y4.7
G1 X-16.76 Y-0.34
G1 X-17.87 Y-5.36
G1 X-18.67 Y-10.3
G1 X-19.15 Y-15.06
G1 X-19.31 Y-19.56
G1 X-19.13 Y-23.73
G1 X-18.63 Y-27.49
G1 X-17.81 Y-30.78
G1 X-16.68 Y-33.54
G1 X-15.27 Y-35.73
G1 X-13.6 Y-37.31
G1 X-11.69 Y-38.25
G1 X-9.59 Y-38.54
G1 X-7.32 Y-38.16
G1 X-4.92 Y-37.14
G1 X-2.45 Y-35.48
G1 X0.08 Y-33.21
G1 X2.6 Y-30.37
G1 X5.07 Y-27.01
G1 X7.46 Y-23.19
G1 X9.72 Y-18.98
G1 X11.81 Y-14.44
G1 X13.71 Y-9.65
G1 X15.37 Y-4.7
G1 X16.76 Y0.34
G1 X17.87 Y5.36
G1 X18.67 Y10.3
G1 X19.15 Y15.06
G1 X19.31 Y19.56
G1 X19.13 Y23.73
G1 X18.63 Y27.49
G1 X17.81 Y30.78
G1 X16.68 Y33.54
G1 X15.27 Y35.73
G1 X13.6 Y37.31
G1 X11.69 Y38.25
M5

; Ellipse 15 rot=84° ry=14.1mm
G0 X7.63 Y39.27
M3
G1 X5.76 Y39.28
G1 X3.8 Y38.62
G1 X1.76 Y37.3
G1 X-0.3 Y35.35
G1 X-2.36 Y32.79
G1 X-4.38 Y29.66
G1 X-6.32 Y26.03
G1 X-8.15 Y21.96
G1 X-9.85 Y17.51
G1 X-11.37 Y12.76
G1 X-12.71 Y7.79
G1 X-13.82 Y2.69
G1 X-14.7 Y-2.46
G1 X-15.32 Y-7.57
G1 X-15.69 Y-12.54
G1 X-15.79 Y-17.31
G1 X-15.61 Y-21.77
G1 X-15.17 Y-25.87
G1 X-14.47 Y-29.52
G1 X-13.52 Y-32.66
G1 X-12.34 Y-35.25
G1 X-10.95 Y-37.23
G1 X-9.37 Y-38.58
G1 X-7.63 Y-39.27
G1 X-5.76 Y-39.28
G1 X-3.8 Y-38.62
G1 X-1.76 Y-37.3
G1 X0.3 Y-35.35
G1 X2.36 Y-32.79
G1 X4.38 Y-29.66
G1 X6.32 Y-26.03
G1 X8.15 Y-21.96
G1 X9.85 Y-17.51
G1 X11.37 Y-12.76
G1 X12.71 Y-7.79
G1 X13.82 Y-2.69
G1 X14.7 Y2.46
G1 X15.32 Y7.57
G1 X15.69 Y12.54
G1 X15.79 Y17.31
G1 X15.61 Y21.77
G1 X15.17 Y25.87
G1 X14.47 Y29.52
G1 X13.52 Y32.66
G1 X12.34 Y35.25
G1 X10.95 Y37.23
G1 X9.37 Y38.58
G1 X7.63 Y39.27
M5

; Ellipse 16 rot=90° ry=12.0mm
G0 X3.49 Y39.85
M3
G1 X1.9 Y39.64
G1 X0.27 Y38.76
G1 X-1.35 Y37.21
G1 X-2.96 Y35.03
G1 X-4.51 Y32.25
G1 X-5.99 Y28.92
G1 X-7.36 Y25.09
G1 X-8.61 Y20.83
G1 X-9.71 Y16.22
G1 X-10.64 Y11.32
G1 X-11.4 Y6.24
G1 X-11.95 Y1.05
G1 X-12.31 Y-4.16
G1 X-12.45 Y-9.3
G1 X-12.38 Y-14.28
G1 X-12.1 Y-19.02
G1 X-11.61 Y-23.43
G1 X-10.92 Y-27.44
G1 X-10.04 Y-30.98
G1 X-9.0 Y-33.99
G1 X-7.8 Y-36.41
G1 X-6.46 Y-38.22
G1 X-5.02 Y-39.37
G1 X-3.49 Y-39.85
G1 X-1.9 Y-39.64
G1 X-0.27 Y-38.76
G1 X1.35 Y-37.21
G1 X2.96 Y-35.03
G1 X4.51 Y-32.25
G1 X5.99 Y-28.92
G1 X7.36 Y-25.09
G1 X8.61 Y-20.83
G1 X9.71 Y-16.22
G1 X10.64 Y-11.32
G1 X11.4 Y-6.24
G1 X11.95 Y-1.05
G1 X12.31 Y4.16
G1 X12.45 Y9.3
G1 X12.38 Y14.28
G1 X12.1 Y19.02
G1 X11.61 Y23.43
G1 X10.92 Y27.44
G1 X10.04 Y30.98
G1 X9.0 Y33.99
G1 X7.8 Y36.41
G1 X6.46 Y38.22
G1 X5.02 Y39.37
G1 X3.49 Y39.85
M5

; Ellipse 17 rot=96° ry=14.1mm
G0 X-0.7 Y39.99
M3
G1 X-2.53 Y39.62
G1 X-4.32 Y38.57
G1 X-6.03 Y36.86
G1 X-7.64 Y34.51
G1 X-9.12 Y31.58
G1 X-10.45 Y28.11
G1 X-11.59 Y24.15
G1 X-12.54 Y19.78
G1 X-13.27 Y15.08
G1 X-13.78 Y10.11
G1 X-14.05 Y4.98
G1 X-14.08 Y-0.25
G1 X-13.87 Y-5.46
G1 X-13.42 Y-10.59
G1 X-12.74 Y-15.53
G1 X-11.84 Y-20.21
G1 X-10.74 Y-24.54
G1 X-9.46 Y-28.45
G1 X-8.02 Y-31.88
G1 X-6.43 Y-34.76
G1 X-4.74 Y-37.04
G1 X-2.97 Y-38.69
G1 X-1.15 Y-39.68
G1 X0.7 Y-39.99
G1 X2.53 Y-39.62
G1 X4.32 Y-38.57
G1 X6.03 Y-36.86
G1 X7.64 Y-34.51
G1 X9.12 Y-31.58
G1 X10.45 Y-28.11
G1 X11.59 Y-24.15
G1 X12.54 Y-19.78
G1 X13.27 Y-15.08
G1 X13.78 Y-10.11
G1 X14.05 Y-4.98
G1 X14.08 Y0.25
G1 X13.87 Y5.46
G1 X13.42 Y10.59
G1 X12.74 Y15.53
G1 X11.84 Y20.21
G1 X10.74 Y24.54
G1 X9.46 Y28.45
G1 X8.02 Y31.88
G1 X6.43 Y34.76
G1 X4.74 Y37.04
G1 X2.97 Y38.69
G1 X1.15 Y39.68
G1 X-0.7 Y39.99
M5

; Ellipse 18 rot=102° ry=16.1mm
G0 X-4.87 Y39.7
M3
G1 X-6.91 Y39.11
G1 X-8.84 Y37.84
G1 X-10.61 Y35.93
G1 X-12.2 Y33.4
G1 X-13.58 Y30.31
G1 X-14.72 Y26.69
G1 X-15.62 Y22.62
G1 X-16.25 Y18.16
G1 X-16.6 Y13.38
G1 X-16.67 Y8.38
G1 X-16.45 Y3.24
G1 X-15.95 Y-1.96
G1 X-15.17 Y-7.12
G1 X-14.14 Y-12.17
G1 X-12.87 Y-17.0
G1 X-11.37 Y-21.55
G1 X-9.68 Y-25.72
G1 X-7.83 Y-29.46
G1 X-5.84 Y-32.69
G1 X-3.75 Y-35.36
G1 X-1.6 Y-37.43
G1 X0.58 Y-38.86
G1 X2.75 Y-39.62
G1 X4.87 Y-39.7
G1 X6.91 Y-39.11
G1 X8.84 Y-37.84
G1 X10.61 Y-35.93
G1 X12.2 Y-33.4
G1 X13.58 Y-30.31
G1 X14.72 Y-26.69
G1 X15.62 Y-22.62
G1 X16.25 Y-18.16
G1 X16.6 Y-13.38
G1 X16.67 Y-8.38
G1 X16.45 Y-3.24
G1 X15.95 Y1.96
G1 X15.17 Y7.12
G1 X14.14 Y12.17
G1 X12.87 Y17.0
G1 X11.37 Y21.55
G1 X9.68 Y25.72
G1 X7.83 Y29.46
G1 X5.84 Y32.69
G1 X3.75 Y35.36
G1 X1.6 Y37.43
G1 X-0.58 Y38.86
G1 X-2.75 Y39.62
G1 X-4.87 Y39.7
M5

; Ellipse 19 rot=108° ry=17.9mm
G0 X-9.0 Y38.97
M3
G1 X-11.19 Y38.12
G1 X-13.2 Y36.61
G1 X-14.98 Y34.47
G1 X-16.5 Y31.74
G1 X-17.74 Y28.47
G1 X-18.68 Y24.72
G1 X-19.3 Y20.54
G1 X-19.58 Y16.0
G1 X-19.54 Y11.2
G1 X-19.15 Y6.2
G1 X-18.45 Y1.1
G1 X-17.42 Y-4.02
G1 X-16.1 Y-9.07
G1 X-14.5 Y-13.97
G1 X-12.65 Y-18.63
G1 X-10.59 Y-22.97
G1 X-8.34 Y-26.92
G1 X-5.95 Y-30.4
G1 X-3.47 Y-33.37
G1 X-0.92 Y-35.76
G1 X1.65 Y-37.55
G1 X4.18 Y-38.69
G1 X6.65 Y-39.17
G1 X9.0 Y-38.97
G1 X11.19 Y-38.12
G1 X13.2 Y-36.61
G1 X14.98 Y-34.47
G1 X16.5 Y-31.74
G1 X17.74 Y-28.47
G1 X18.68 Y-24.72
G1 X19.3 Y-20.54
G1 X19.58 Y-16.0
G1 X19.54 Y-11.2
G1 X19.15 Y-6.2
G1 X18.45 Y-1.1
G1 X17.42 Y4.02
G1 X16.1 Y9.07
G1 X14.5 Y13.97
G1 X12.65 Y18.63
G1 X10.59 Y22.97
G1 X8.34 Y26.92
G1 X5.95 Y30.4
G1 X3.47 Y33.37
G1 X0.92 Y35.76
G1 X-1.65 Y37.55
G1 X-4.18 Y38.69
G1 X-6.65 Y39.17
G1 X-9.0 Y38.97
M5

; Ellipse 20 rot=114° ry=19.4mm
G0 X-13.02 Y37.82
M3
G1 X-15.31 Y36.67
G1 X-17.33 Y34.89
G1 X-19.06 Y32.52
G1 X-20.46 Y29.59
G1 X-21.52 Y26.15
G1 X-22.2 Y22.27
G1 X-22.5 Y18.0
G1 X-22.42 Y13.43
G1 X-21.96 Y8.63
G1 X-21.12 Y3.68
G1 X-19.92 Y-1.34
G1 X-18.37 Y-6.33
G1 X-16.52 Y-11.21
G1 X-14.38 Y-15.9
G1 X-11.99 Y-20.32
G1 X-9.4 Y-24.39
G1 X-6.65 Y-28.04
G1 X-3.78 Y-31.22
G1 X-0.85 Y-33.86
G1 X2.09 Y-35.92
G1 X5.0 Y-37.36
G1 X7.82 Y-38.17
G1 X10.51 Y-38.32
G1 X13.02 Y-37.82
G1 X15.31 Y-36.67
G1 X17.33 Y-34.89
G1 X19.06 Y-32.52
G1 X20.46 Y-29.59
G1 X21.52 Y-26.15
G1 X22.2 Y-22.27
G1 X22.5 Y-18.0
G1 X22.42 Y-13.43
G1 X21.96 Y-8.63
G1 X21.12 Y-3.68
G1 X19.92 Y1.34
G1 X18.37 Y6.33
G1 X16.52 Y11.21
G1 X14.38 Y15.9
G1 X11.99 Y20.32
G1 X9.4 Y24.39
G1 X6.65 Y28.04
G1 X3.78 Y31.22
G1 X0.85 Y33.86
G1 X-2.09 Y35.92
G1 X-5.0 Y37.36
G1 X-7.82 Y38.17
G1 X-10.51 Y38.32
G1 X-13.02 Y37.82
M5

; Ellipse 21 rot=120° ry=20.7mm
G0 X-16.9 Y36.25
M3
G1 X-19.2 Y34.8
G1 X-21.17 Y32.76
G1 X-22.78 Y30.15
G1 X-24.0 Y27.03
G1 X-24.81 Y23.45
G1 X-25.19 Y19.46
G1 X-25.15 Y15.14
G1 X-24.67 Y10.56
G1 X-23.77 Y5.81
G1 X-22.46 Y0.95
G1 X-20.77 Y-3.92
G1 X-18.72 Y-8.73
G1 X-16.36 Y-13.39
G1 X-13.71 Y-17.82
G1 X-10.83 Y-21.94
G1 X-7.76 Y-25.69
G1 X-4.56 Y-29.0
G1 X-1.29 Y-31.81
G1 X2.01 Y-34.08
G1 X5.28 Y-35.76
G1 X8.45 Y-36.83
G1 X11.48 Y-37.28
G1 X14.32 Y-37.08
G1 X16.9 Y-36.25
G1 X19.2 Y-34.8
G1 X21.17 Y-32.76
G1 X22.78 Y-30.15
G1 X24.0 Y-27.03
G1 X24.81 Y-23.45
G1 X25.19 Y-19.46
G1 X25.15 Y-15.14
G1 X24.67 Y-10.56
G1 X23.77 Y-5.81
G1 X22.46 Y-0.95
G1 X20.77 Y3.92
G1 X18.72 Y8.73
G1 X16.36 Y13.39
G1 X13.71 Y17.82
G1 X10.83 Y21.94
G1 X7.76 Y25.69
G1 X4.56 Y29.0
G1 X1.29 Y31.81
G1 X-2.01 Y34.08
G1 X-5.28 Y35.76
G1 X-8.45 Y36.83
G1 X-11.48 Y37.28
G1 X-14.32 Y37.08
G1 X-16.9 Y36.25
M5

; Ellipse 22 rot=126° ry=21.5mm
G0 X-20.6 Y34.29
M3
G1 X-22.83 Y32.55
G1 X-24.67 Y30.25
G1 X-26.09 Y27.44
G1 X-27.06 Y24.15
G1 X-27.57 Y20.46
G1 X-27.61 Y16.41
G1 X-27.17 Y12.08
G1 X-26.27 Y7.55
G1 X-24.92 Y2.89
G1 X-23.14 Y-1.83
G1 X-20.97 Y-6.51
G1 X-18.44 Y-11.08
G1 X-15.59 Y-15.46
G1 X-12.48 Y-19.58
G1 X-9.15 Y-23.36
G1 X-5.67 Y-26.74
G1 X-2.09 Y-29.66
G1 X1.53 Y-32.08
G1 X5.12 Y-33.95
G1 X8.62 Y-35.23
G1 X11.98 Y-35.92
G1 X15.13 Y-35.99
G1 X18.02 Y-35.44
G1 X20.6 Y-34.29
G1 X22.83 Y-32.55
G1 X24.67 Y-30.25
G1 X26.09 Y-27.44
G1 X27.06 Y-24.15
G1 X27.57 Y-20.46
G1 X27.61 Y-16.41
G1 X27.17 Y-12.08
G1 X26.27 Y-7.55
G1 X24.92 Y-2.89
G1 X23.14 Y1.83
G1 X20.97 Y6.51
G1 X18.44 Y11.08
G1 X15.59 Y15.46
G1 X12.48 Y19.58
G1 X9.15 Y23.36
G1 X5.67 Y26.74
G1 X2.09 Y29.66
G1 X-1.53 Y32.08
G1 X-5.12 Y33.95
G1 X-8.62 Y35.23
G1 X-11.98 Y35.92
G1 X-15.13 Y35.99
G1 X-18.02 Y35.44
G1 X-20.6 Y34.29
M5

; Ellipse 23 rot=132° ry=21.9mm
G0 X-24.07 Y31.95
M3
G1 X-26.15 Y29.95
G1 X-27.79 Y27.44
G1 X-28.95 Y24.46
G1 X-29.61 Y21.06
G1 X-29.77 Y17.3
G1 X-29.41 Y13.25
G1 X-28.56 Y8.97
G1 X-27.21 Y4.54
G1 X-25.4 Y0.02
G1 X-23.16 Y-4.49
G1 X-20.52 Y-8.92
G1 X-17.53 Y-13.21
G1 X-14.23 Y-17.26
G1 X-10.7 Y-21.03
G1 X-6.98 Y-24.43
G1 X-3.14 Y-27.41
G1 X0.75 Y-29.92
G1 X4.63 Y-31.93
G1 X8.43 Y-33.38
G1 X12.08 Y-34.27
G1 X15.53 Y-34.57
G1 X18.72 Y-34.28
G1 X21.58 Y-33.4
G1 X24.07 Y-31.95
G1 X26.15 Y-29.95
G1 X27.79 Y-27.44
G1 X28.95 Y-24.46
G1 X29.61 Y-21.06
G1 X29.77 Y-17.3
G1 X29.41 Y-13.25
G1 X28.56 Y-8.97
G1 X27.21 Y-4.54
G1 X25.4 Y-0.02
G1 X23.16 Y4.49
G1 X20.52 Y8.92
G1 X17.53 Y13.21
G1 X14.23 Y17.26
G1 X10.7 Y21.03
G1 X6.98 Y24.43
G1 X3.14 Y27.41
G1 X-0.75 Y29.92
G1 X-4.63 Y31.93
G1 X-8.43 Y33.38
G1 X-12.08 Y34.27
G1 X-15.53 Y34.57
G1 X-18.72 Y34.28
G1 X-21.58 Y33.4
G1 X-24.07 Y31.95
M5

; Ellipse 24 rot=138° ry=21.9mm
G0 X-27.28 Y29.25
M3
G1 X-29.14 Y27.05
G1 X-30.5 Y24.38
G1 X-31.35 Y21.3
G1 X-31.65 Y17.85
G1 X-31.41 Y14.1
G1 X-30.64 Y10.1
G1 X-29.34 Y5.93
G1 X-27.54 Y1.67
G1 X-25.27 Y-2.63
G1 X-22.56 Y-6.89
G1 X-19.47 Y-11.02
G1 X-16.05 Y-14.97
G1 X-12.35 Y-18.66
G1 X-8.44 Y-22.03
G1 X-4.39 Y-25.02
G1 X-0.26 Y-27.59
G1 X3.87 Y-29.68
G1 X7.94 Y-31.27
G1 X11.87 Y-32.32
G1 X15.6 Y-32.82
G1 X19.06 Y-32.75
G1 X22.2 Y-32.13
G1 X24.95 Y-30.96
G1 X27.28 Y-29.25
G1 X29.14 Y-27.05
G1 X30.5 Y-24.38
G1 X31.35 Y-21.3
G1 X31.65 Y-17.85
G1 X31.41 Y-14.1
G1 X30.64 Y-10.1
G1 X29.34 Y-5.93
G1 X27.54 Y-1.67
G1 X25.27 Y2.63
G1 X22.56 Y6.89
G1 X19.47 Y11.02
G1 X16.05 Y14.97
G1 X12.35 Y18.66
G1 X8.44 Y22.03
G1 X4.39 Y25.02
G1 X0.26 Y27.59
G1 X-3.87 Y29.68
G1 X-7.94 Y31.27
G1 X-11.87 Y32.32
G1 X-15.6 Y32.82
G1 X-19.06 Y32.75
G1 X-22.2 Y32.13
G1 X-24.95 Y30.96
G1 X-27.28 Y29.25
M5

; Ellipse 25 rot=144° ry=21.5mm
G0 X-30.19 Y26.24
M3
G1 X-31.77 Y23.9
G1 X-32.81 Y21.15
G1 X-33.29 Y18.03
G1 X-33.2 Y14.61
G1 X-32.54 Y10.94
G1 X-31.33 Y7.08
G1 X-29.57 Y3.1
G1 X-27.32 Y-0.94
G1 X-24.59 Y-4.96
G1 X-21.44 Y-8.89
G1 X-17.93 Y-12.67
G1 X-14.11 Y-16.23
G1 X-10.05 Y-19.52
G1 X-5.82 Y-22.47
G1 X-1.49 Y-25.04
G1 X2.87 Y-27.18
G1 X7.18 Y-28.85
G1 X11.37 Y-30.04
G1 X15.36 Y-30.7
G1 X19.09 Y-30.84
G1 X22.49 Y-30.46
G1 X25.51 Y-29.55
G1 X28.09 Y-28.14
G1 X30.19 Y-26.24
G1 X31.77 Y-23.9
G1 X32.81 Y-21.15
G1 X33.29 Y-18.03
G1 X33.2 Y-14.61
G1 X32.54 Y-10.94
G1 X31.33 Y-7.08
G1 X29.57 Y-3.1
G1 X27.32 Y0.94
G1 X24.59 Y4.96
G1 X21.44 Y8.89
G1 X17.93 Y12.67
G1 X14.11 Y16.23
G1 X10.05 Y19.52
G1 X5.82 Y22.47
G1 X1.49 Y25.04
G1 X-2.87 Y27.18
G1 X-7.18 Y28.85
G1 X-11.37 Y30.04
G1 X-15.36 Y30.7
G1 X-19.09 Y30.84
G1 X-22.49 Y30.46
G1 X-25.51 Y29.55
G1 X-28.09 Y28.14
G1 X-30.19 Y26.24
M5

; Ellipse 26 rot=150° ry=20.7mm
G0 X-32.77 Y22.94
M3
G1 X-34.03 Y20.54
G1 X-34.72 Y17.78
G1 X-34.81 Y14.72
G1 X-34.3 Y11.41
G1 X-33.21 Y7.9
G1 X-31.55 Y4.26
G1 X-29.35 Y0.54
G1 X-26.65 Y-3.18
G1 X-23.49 Y-6.86
G1 X-19.93 Y-10.41
G1 X-16.03 Y-13.78
G1 X-11.85 Y-16.92
G1 X-7.47 Y-19.77
G1 X-2.97 Y-22.29
G1 X1.59 Y-24.42
G1 X6.12 Y-26.13
G1 X10.55 Y-27.39
G1 X14.79 Y-28.19
G1 X18.78 Y-28.5
G1 X22.45 Y-28.33
G1 X25.74 Y-27.67
G1 X28.58 Y-26.54
G1 X30.94 Y-24.96
G1 X32.77 Y-22.94
G1 X34.03 Y-20.54
G1 X34.72 Y-17.78
G1 X34.81 Y-14.72
G1 X34.3 Y-11.41
G1 X33.21 Y-7.9
G1 X31.55 Y-4.26
G1 X29.35 Y-0.54
G1 X26.65 Y3.18
G1 X23.49 Y6.86
G1 X19.93 Y10.41
G1 X16.03 Y13.78
G1 X11.85 Y16.92
G1 X7.47 Y19.77
G1 X2.97 Y22.29
G1 X-1.59 Y24.42
G1 X-6.12 Y26.13
G1 X-10.55 Y27.39
G1 X-14.79 Y28.19
G1 X-18.78 Y28.5
G1 X-22.45 Y28.33
G1 X-25.74 Y27.67
G1 X-28.58 Y26.54
G1 X-30.94 Y24.96
G1 X-32.77 Y22.94
M5

; Ellipse 27 rot=156° ry=19.4mm
G0 X-34.98 Y19.39
M3
G1 X-35.92 Y17.01
G1 X-36.23 Y14.33
G1 X-35.93 Y11.41
G1 X-35.01 Y8.3
G1 X-33.49 Y5.04
G1 X-31.4 Y1.7
G1 X-28.77 Y-1.68
G1 X-25.65 Y-5.02
G1 X-22.09 Y-8.28
G1 X-18.15 Y-11.4
G1 X-13.91 Y-14.32
G1 X-9.42 Y-17.0
G1 X-4.77 Y-19.38
G1 X-0.04 Y-21.44
G1 X4.68 Y-23.12
G1 X9.33 Y-24.41
G1 X13.82 Y-25.29
G1 X18.08 Y-25.73
G1 X22.02 Y-25.73
G1 X25.59 Y-25.29
G1 X28.72 Y-24.42
G1 X31.35 Y-23.13
G1 X33.46 Y-21.44
G1 X34.98 Y-19.39
G1 X35.92 Y-17.01
G1 X36.23 Y-14.33
G1 X35.93 Y-11.41
G1 X35.01 Y-8.3
G1 X33.49 Y-5.04
G1 X31.4 Y-1.7
G1 X28.77 Y1.68
G1 X25.65 Y5.02
G1 X22.09 Y8.28
G1 X18.15 Y11.4
G1 X13.91 Y14.32
G1 X9.42 Y17.0
G1 X4.77 Y19.38
G1 X0.04 Y21.44
G1 X-4.68 Y23.12
G1 X-9.33 Y24.41
G1 X-13.82 Y25.29
G1 X-18.08 Y25.73
G1 X-22.02 Y25.73
G1 X-25.59 Y25.29
G1 X-28.72 Y24.42
G1 X-31.35 Y23.13
G1 X-33.46 Y21.44
G1 X-34.98 Y19.39
M5

; Ellipse 28 rot=162° ry=17.9mm
G0 X-36.82 Y15.63
M3
G1 X-37.42 Y13.35
G1 X-37.37 Y10.84
G1 X-36.69 Y8.14
G1 X-35.38 Y5.31
G1 X-33.46 Y2.38
G1 X-30.98 Y-0.59
G1 X-27.96 Y-3.54
G1 X-24.46 Y-6.44
G1 X-20.54 Y-9.22
G1 X-16.28 Y-11.85
G1 X-11.73 Y-14.28
G1 X-6.99 Y-16.46
G1 X-2.12 Y-18.36
G1 X2.78 Y-19.94
G1 X7.64 Y-21.19
G1 X12.36 Y-22.07
G1 X16.87 Y-22.57
G1 X21.1 Y-22.69
G1 X24.96 Y-22.42
G1 X28.39 Y-21.76
G1 X31.34 Y-20.74
G1 X33.76 Y-19.36
G1 X35.59 Y-17.64
G1 X36.82 Y-15.63
G1 X37.42 Y-13.35
G1 X37.37 Y-10.84
G1 X36.69 Y-8.14
G1 X35.38 Y-5.31
G1 X33.46 Y-2.38
G1 X30.98 Y0.59
G1 X27.96 Y3.54
G1 X24.46 Y6.44
G1 X20.54 Y9.22
G1 X16.28 Y11.85
G1 X11.73 Y14.28
G1 X6.99 Y16.46
G1 X2.12 Y18.36
G1 X-2.78 Y19.94
G1 X-7.64 Y21.19
G1 X-12.36 Y22.07
G1 X-16.87 Y22.57
G1 X-21.1 Y22.69
G1 X-24.96 Y22.42
G1 X-28.39 Y21.76
G1 X-31.34 Y20.74
G1 X-33.76 Y19.36
G1 X-35.59 Y17.64
G1 X-36.82 Y15.63
M5

; Ellipse 29 rot=168° ry=16.1mm
G0 X-38.25 Y11.69
M3
G1 X-38.54 Y9.59
G1 X-38.16 Y7.32
G1 X-37.14 Y4.92
G1 X-35.48 Y2.45
G1 X-33.21 Y-0.08
G1 X-30.37 Y-2.6
G1 X-27.01 Y-5.07
G1 X-23.19 Y-7.46
G1 X-18.98 Y-9.72
G1 X-14.44 Y-11.81
G1 X-9.65 Y-13.71
G1 X-4.7 Y-15.37
G1 X0.34 Y-16.76
G1 X5.36 Y-17.87
G1 X10.3 Y-18.67
G1 X15.06 Y-19.15
G1 X19.56 Y-19.31
G1 X23.73 Y-19.13
G1 X27.49 Y-18.63
G1 X30.78 Y-17.81
G1 X33.54 Y-16.68
G1 X35.73 Y-15.27
G1 X37.31 Y-13.6
G1 X38.25 Y-11.69
G1 X38.54 Y-9.59
G1 X38.16 Y-7.32
G1 X37.14 Y-4.92
G1 X35.48 Y-2.45
G1 X33.21 Y0.08
G1 X30.37 Y2.6
G1 X27.01 Y5.07
G1 X23.19 Y7.46
G1 X18.98 Y9.72
G1 X14.44 Y11.81
G1 X9.65 Y13.71
G1 X4.7 Y15.37
G1 X-0.34 Y16.76
G1 X-5.36 Y17.87
G1 X-10.3 Y18.67
G1 X-15.06 Y19.15
G1 X-19.56 Y19.31
G1 X-23.73 Y19.13
G1 X-27.49 Y18.63
G1 X-30.78 Y17.81
G1 X-33.54 Y16.68
G1 X-35.73 Y15.27
G1 X-37.31 Y13.6
G1 X-38.25 Y11.69
M5

; Ellipse 30 rot=174° ry=14.1mm
G0 X-39.27 Y7.63
M3
G1 X-39.28 Y5.76
G1 X-38.62 Y3.8
G1 X-37.3 Y1.76
G1 X-35.35 Y-0.3
G1 X-32.79 Y-2.36
G1 X-29.66 Y-4.38
G1 X-26.03 Y-6.32
G1 X-21.96 Y-8.15
G1 X-17.51 Y-9.85
G1 X-12.76 Y-11.37
G1 X-7.79 Y-12.71
G1 X-2.69 Y-13.82
G1 X2.46 Y-14.7
G1 X7.57 Y-15.32
G1 X12.54 Y-15.69
G1 X17.31 Y-15.79
G1 X21.77 Y-15.61
G1 X25.87 Y-15.17
G1 X29.52 Y-14.47
G1 X32.66 Y-13.52
G1 X35.25 Y-12.34
G1 X37.23 Y-10.95
G1 X38.58 Y-9.37
G1 X39.27 Y-7.63
G1 X39.28 Y-5.76
G1 X38.62 Y-3.8
G1 X37.3 Y-1.76
G1 X35.35 Y0.3
G1 X32.79 Y2.36
G1 X29.66 Y4.38
G1 X26.03 Y6.32
G1 X21.96 Y8.15
G1 X17.51 Y9.85
G1 X12.76 Y11.37
G1 X7.79 Y12.71
G1 X2.69 Y13.82
G1 X-2.46 Y14.7
G1 X-7.57 Y15.32
G1 X-12.54 Y15.69
G1 X-17.31 Y15.79
G1 X-21.77 Y15.61
G1 X-25.87 Y15.17
G1 X-29.52 Y14.47
G1 X-32.66 Y13.52
G1 X-35.25 Y12.34
G1 X-37.23 Y10.95
G1 X-38.58 Y9.37
G1 X-39.27 Y7.63
M5

M5
G0 X0 Y0
